X,Y,STANDORT,VERFAHREN,PARAMETER,EINHEIT,MESSW_BL,LON,LAT,GEO,STRATIGRAP,GENESE,PETROGRAPH,BEMERKUNGE,name,type,name_1,type_1
11.950774138809312,49.987283231409059,StSch 4106 Fichtelgebirge 48,SzintillationszÃ¤,"Rn-222 (Radon), 1 m Tie",kBq m-3,392.0000000000,711513,5541390,833,"Oberkarbon, z.T. Rotliegend",plutonitisch,"Granit, Granodiorit","jungvariszische Granitoide, postasturisch",,,,
11.975521832559297,49.986074891646822,StSch 4106 Fichtelgebirge 49,SzintillationszÃ¤,"Rn-222 (Radon), 1 m Tie",kBq m-3,177.0000000000,713292,5541326,833,"Oberkarbon, z.T. Rotliegend",plutonitisch,"Granit, Granodiorit","jungvariszische Granitoide, postasturisch",,,,
11.967796150509098,50.004490142084258,StSch 4106 Fichtelgebirge 50,SzintillationszÃ¤,"Rn-222 (Radon), 1 m Tie",kBq m-3,639.0000000000,712657,5543351,833,"Oberkarbon, z.T. Rotliegend",plutonitisch,"Granit, Granodiorit","jungvariszische Granitoide, postasturisch",,,,
11.922690598689108,50.045983280656749,StSch 4106 Fichtelgebirge 51,SzintillationszÃ¤,"Rn-222 (Radon), 1 m Tie",kBq m-3,245.0000000000,709245,5547836,845,Oberes Proterozoikum - Altpal„ozoikum,metamorphes Intrusivgestein,"Orthogneis: granitisch, granodioritisch","šberg„nge zu Migmatiten; Metamorphose pr„-? bis frh(?)-variszisch",,farmland,,
11.945682706611505,50.046400102934115,StSch 4106 Fichtelgebirge 52,SzintillationszÃ¤,"Rn-222 (Radon), 1 m Tie",kBq m-3,201.0000000000,710889,5547947,845,Oberes Proterozoikum - Altpal„ozoikum,metamorphes Intrusivgestein,"Orthogneis: granitisch, granodioritisch","šberg„nge zu Migmatiten; Metamorphose pr„-? bis frh(?)-variszisch",,,,
11.956509705282867,50.057081792429727,StSch 4106 Fichtelgebirge 53,SzintillationszÃ¤,"Rn-222 (Radon), 1 m Tie",kBq m-3,155.0000000000,711617,5549165,845,Oberes Proterozoikum - Altpal„ozoikum,metamorphes Intrusivgestein,"Orthogneis: granitisch, granodioritisch","šberg„nge zu Migmatiten; Metamorphose pr„-? bis frh(?)-variszisch",,,,
11.977815310610858,50.047549589974452,StSch 4106 Fichtelgebirge 54,SzintillationszÃ¤,"Rn-222 (Radon), 1 m Tie",kBq m-3,344.0000000000,713184,5548166,845,Oberes Proterozoikum - Altpal„ozoikum,metamorphes Intrusivgestein,"Orthogneis: granitisch, granodioritisch","šberg„nge zu Migmatiten; Metamorphose pr„-? bis frh(?)-variszisch",,,,
11.91509044788881,50.06141381029834,StSch 4106 Fichtelgebirge 55,SzintillationszÃ¤,"Rn-222 (Radon), 1 m Tie",kBq m-3,173.0000000000,708634,5549530,845,Oberes Proterozoikum - Altpal„ozoikum,metamorphes Intrusivgestein,"Orthogneis: granitisch, granodioritisch","šberg„nge zu Migmatiten; Metamorphose pr„-? bis frh(?)-variszisch",,,,
11.909295147665997,50.082025177784715,StSch 4106 Fichtelgebirge 56,SzintillationszÃ¤,"Rn-222 (Radon), 1 m Tie",kBq m-3,654.0000000000,708130,5551805,833,"Oberkarbon, z.T. Rotliegend",plutonitisch,"Granit, Granodiorit","jungvariszische Granitoide, postasturisch",,,,
11.897587932804727,50.036960499962731,StSch 4106 Fichtelgebirge 57,SzintillationszÃ¤,"Rn-222 (Radon), 1 m Tie",kBq m-3,117.0000000000,707487,5546763,845,Oberes Proterozoikum - Altpal„ozoikum,metamorphes Intrusivgestein,"Orthogneis: granitisch, granodioritisch","šberg„nge zu Migmatiten; Metamorphose pr„-? bis frh(?)-variszisch",,,,
11.893274789045613,50.001929748845079,StSch 4106 Fichtelgebirge 58,SzintillationszÃ¤,"Rn-222 (Radon), 1 m Tie",kBq m-3,180.0000000000,707329,5542857,833,"Oberkarbon, z.T. Rotliegend",plutonitisch,"Granit, Granodiorit","jungvariszische Granitoide, postasturisch",,,,
11.875791501769653,50.012296319274235,StSch 4106 Fichtelgebirge 59,SzintillationszÃ¤,"Rn-222 (Radon), 1 m Tie",kBq m-3,156.0000000000,706032,5543961,833,"Oberkarbon, z.T. Rotliegend",plutonitisch,"Granit, Granodiorit","jungvariszische Granitoide, postasturisch",,,,
11.87063679464571,50.009428387712681,StSch 4106 Fichtelgebirge 60,SzintillationszÃ¤,"Rn-222 (Radon), 1 m Tie",kBq m-3,1134.0000000000,705675,5543628,833,"Oberkarbon, z.T. Rotliegend",plutonitisch,"Granit, Granodiorit","jungvariszische Granitoide, postasturisch",,,,
11.830291113925645,50.010789084565971,StSch 4106 Fichtelgebirge 61,SzintillationszÃ¤,"Rn-222 (Radon), 1 m Tie",kBq m-3,501.0000000000,702779,5543669,833,"Oberkarbon, z.T. Rotliegend",plutonitisch,"Granit, Granodiorit","jungvariszische Granitoide, postasturisch",,,,
11.810063077157752,50.01651669709301,StSch 4106 Fichtelgebirge 62,SzintillationszÃ¤,"Rn-222 (Radon), 1 m Tie",kBq m-3,289.0000000000,701306,5544251,833,"Oberkarbon, z.T. Rotliegend",plutonitisch,"Granit, Granodiorit","jungvariszische Granitoide, postasturisch",,,,
11.859980166143817,50.032595477062316,StSch 4106 Fichtelgebirge 63,SzintillationszÃ¤,"Rn-222 (Radon), 1 m Tie",kBq m-3,1080.0000000000,704813,5546174,833,"Oberkarbon, z.T. Rotliegend",plutonitisch,"Granit, Granodiorit","jungvariszische Granitoide, postasturisch",,,,
11.835622289492848,50.037547672327243,StSch 4106 Fichtelgebirge 64,SzintillationszÃ¤,"Rn-222 (Radon), 1 m Tie",kBq m-3,157.0000000000,703048,5546658,833,"Oberkarbon, z.T. Rotliegend",plutonitisch,"Granit, Granodiorit","jungvariszische Granitoide, postasturisch",,,,
11.810093769707457,50.039761342110687,StSch 4106 Fichtelgebirge 65,SzintillationszÃ¤,"Rn-222 (Radon), 1 m Tie",kBq m-3,373.0000000000,701211,5546835,833,"Oberkarbon, z.T. Rotliegend",plutonitisch,"Granit, Granodiorit","jungvariszische Granitoide, postasturisch",,,,forest
11.889115774138697,50.094943920936018,StSch 4106 Fichtelgebirge 66,SzintillationszÃ¤,"Rn-222 (Radon), 1 m Tie",kBq m-3,210.0000000000,706631,5553185,834,"z.T. Oberdevon, Karbon",plutonisch,Granit,variszischer Granit,,farmland,,
11.933869834236258,50.100513698524203,StSch 4106 Fichtelgebirge 67,SzintillationszÃ¤,"Rn-222 (Radon), 1 m Tie",kBq m-3,51.0000000000,709807,5553929,834,"z.T. Oberdevon, Karbon",plutonisch,Granit,variszischer Granit,,,,forest
11.969502911950684,50.080571418527065,StSch 4106 Fichtelgebirge 68,SzintillationszÃ¤,"Rn-222 (Radon), 1 m Tie",kBq m-3,53.0000000000,712443,5551813,834,"z.T. Oberdevon, Karbon",plutonisch,Granit,variszischer Granit,,farmland,,
11.969448061041914,50.099806363383209,StSch 4106 Fichtelgebirge 69,SzintillationszÃ¤,"Rn-222 (Radon), 1 m Tie",kBq m-3,144.0000000000,712354,5553951,834,"z.T. Oberdevon, Karbon",plutonisch,Granit,variszischer Granit,,farmland,,
11.967724305190343,50.109701120923475,StSch 4106 Fichtelgebirge 70,SzintillationszÃ¤,"Rn-222 (Radon), 1 m Tie",kBq m-3,501.0000000000,712187,5555046,834,"z.T. Oberdevon, Karbon",plutonisch,Granit,variszischer Granit,,farmland,,
11.943001977559799,50.130149027134905,StSch 4106 Fichtelgebirge 71,SzintillationszÃ¤,"Rn-222 (Radon), 1 m Tie",kBq m-3,279.0000000000,710330,5557249,834,"z.T. Oberdevon, Karbon",plutonisch,Granit,variszischer Granit,,farm,,
11.967224786284589,50.132608730130528,StSch 4106 Fichtelgebirge 72,SzintillationszÃ¤,"Rn-222 (Radon), 1 m Tie",kBq m-3,73.0000000000,712050,5557591,834,"z.T. Oberdevon, Karbon",plutonisch,Granit,variszischer Granit,,farmland,,
11.94463332545264,50.182212075707881,StSch 4106 Fichtelgebirge 73,SzintillationszÃ¤,"Rn-222 (Radon), 1 m Tie",kBq m-3,34.0000000000,710218,5563041,715,"Ordovizium, Tieferes Ordovizium","marine Ablagerungen, metamorph",Phyllit,,,,,forest
11.994119800712046,50.205334095785297,StSch 4106 Fichtelgebirge 74,SzintillationszÃ¤,"Rn-222 (Radon), 1 m Tie",kBq m-3,83.0000000000,713647,5565752,715,"Ordovizium, Tieferes Ordovizium","marine Ablagerungen, metamorph",Phyllit,,,farmyard,,
11.972638768028345,50.204986572338797,StSch 4106 Fichtelgebirge 75,SzintillationszÃ¤,"Rn-222 (Radon), 1 m Tie",kBq m-3,126.0000000000,712116,5565652,715,"Ordovizium, Tieferes Ordovizium","marine Ablagerungen, metamorph",Phyllit,,,farmland,,
11.907367706558295,50.161687378939469,StSch 4106 Fichtelgebirge 76,SzintillationszÃ¤,"Rn-222 (Radon), 1 m Tie",kBq m-3,13.0000000000,707647,5560655,715,"Ordovizium, Tieferes Ordovizium","marine Ablagerungen, metamorph",Phyllit,,,,,forest
11.894106804001103,50.14315449874757,StSch 4106 Fichtelgebirge 77,SzintillationszÃ¤,"Rn-222 (Radon), 1 m Tie",kBq m-3,218.0000000000,706780,5558558,833,"Oberkarbon, z.T. Rotliegend",plutonitisch,"Granit, Granodiorit","jungvariszische Granitoide, postasturisch",,,,forest
11.880044352429485,50.129039015109669,StSch 4106 Fichtelgebirge 78,SzintillationszÃ¤,"Rn-222 (Radon), 1 m Tie",kBq m-3,347.0000000000,705836,5556950,833,"Oberkarbon, z.T. Rotliegend",plutonitisch,"Granit, Granodiorit","jungvariszische Granitoide, postasturisch",,,,forest
11.916364315522225,50.114170139359977,StSch 4106 Fichtelgebirge 79,SzintillationszÃ¤,"Rn-222 (Radon), 1 m Tie",kBq m-3,401.0000000000,708496,5555398,834,"z.T. Oberdevon, Karbon",plutonisch,Granit,variszischer Granit,,farmland,,
11.896800480656234,50.107580473301667,StSch 4106 Fichtelgebirge 80,SzintillationszÃ¤,"Rn-222 (Radon), 1 m Tie",kBq m-3,241.0000000000,707126,5554611,834,"z.T. Oberdevon, Karbon",plutonisch,Granit,variszischer Granit,,farmland,,
11.893217919167752,50.086205588730685,StSch 4106 Fichtelgebirge 81,SzintillationszÃ¤,"Rn-222 (Radon), 1 m Tie",kBq m-3,1029.0000000000,706962,5552225,833,"Oberkarbon, z.T. Rotliegend",plutonitisch,"Granit, Granodiorit","jungvariszische Granitoide, postasturisch",,farmland,,
11.906499237519087,50.100276087948075,StSch 4106 Fichtelgebirge 82,SzintillationszÃ¤,"Rn-222 (Radon), 1 m Tie",kBq m-3,406.0000000000,707851,5553826,834,"z.T. Oberdevon, Karbon",plutonisch,Granit,variszischer Granit,,,,forest
11.855735070378133,50.10621464699441,StSch 4106 Fichtelgebirge 83,SzintillationszÃ¤,"Rn-222 (Radon), 1 m Tie",kBq m-3,43.0000000000,704196,5554346,834,"z.T. Oberdevon, Karbon",plutonisch,Granit,variszischer Granit,,farmland,,
11.844571672031336,50.1189301393524,StSch 4106 Fichtelgebirge 84,SzintillationszÃ¤,"Rn-222 (Radon), 1 m Tie",kBq m-3,202.0000000000,703344,5555729,833,"Oberkarbon, z.T. Rotliegend",plutonitisch,"Granit, Granodiorit","jungvariszische Granitoide, postasturisch",,,,
11.838150704431186,50.098369967732246,StSch 4106 Fichtelgebirge 85,SzintillationszÃ¤,"Rn-222 (Radon), 1 m Tie",kBq m-3,171.0000000000,702972,5553426,834,"z.T. Oberdevon, Karbon",plutonisch,Granit,variszischer Granit,,farmland,,
11.86597029765359,50.074530594937144,StSch 4106 Fichtelgebirge 86,SzintillationszÃ¤,"Rn-222 (Radon), 1 m Tie",kBq m-3,262.0000000000,705063,5550852,833,"Oberkarbon, z.T. Rotliegend",plutonitisch,"Granit, Granodiorit","jungvariszische Granitoide, postasturisch",,,,
11.851912249698419,50.059053291059683,StSch 4106 Fichtelgebirge 87,SzintillationszÃ¤,"Rn-222 (Radon), 1 m Tie",kBq m-3,922.0000000000,704123,5549093,833,"Oberkarbon, z.T. Rotliegend",plutonitisch,"Granit, Granodiorit","jungvariszische Granitoide, postasturisch",,,,
12.311835422730946,50.182956746424104,StSch 4106 Fichtelgebirge 1,SzintillationszÃ¤,"Rn-222 (Radon), 1 m Tie",kBq m-3,207.0000000000,736424,5564224,834,"z.T. Oberdevon, Karbon",plutonisch,Granit,variszischer Granit,,,,
12.313268463390832,50.20769208597617,StSch 4106 Fichtelgebirge 2,SzintillationszÃ¤,"Rn-222 (Radon), 1 m Tie",kBq m-3,300.0000000000,736404,5566978,834,"z.T. Oberdevon, Karbon",plutonisch,Granit,variszischer Granit,,,,
12.305925789882931,50.216448077502257,StSch 4106 Fichtelgebirge 3,SzintillationszÃ¤,"Rn-222 (Radon), 1 m Tie",kBq m-3,1037.0000000000,735837,5567928,834,"z.T. Oberdevon, Karbon",plutonisch,Granit,variszischer Granit,,,,
12.28965619030649,50.214940125030907,StSch 4106 Fichtelgebirge 4,SzintillationszÃ¤,"Rn-222 (Radon), 1 m Tie",kBq m-3,152.0000000000,734684,5567709,845,Oberes Proterozoikum - Altpal„ozoikum,metamorphes Intrusivgestein,"Orthogneis: granitisch, granodioritisch","šberg„nge zu Migmatiten; Metamorphose pr„-? bis frh(?)-variszisch",,,,
12.310711546984669,50.235132183951109,StSch 4106 Fichtelgebirge 5,SzintillationszÃ¤,"Rn-222 (Radon), 1 m Tie",kBq m-3,130.0000000000,736086,5570020,720,Kambrium ungegliedert,metamorph,"Phyllit, Kalkphyllit, Quarzit, Grauwacke",,,,,
12.332306575499942,50.24611068339977,StSch 4106 Fichtelgebirge 6,SzintillationszÃ¤,"Rn-222 (Radon), 1 m Tie",kBq m-3,60.0000000000,737571,5571309,720,Kambrium ungegliedert,metamorph,"Phyllit, Kalkphyllit, Quarzit, Grauwacke",,,,,
11.979308793493075,50.145091391020529,StSch 4106 Fichtelgebirge 38,SzintillationszÃ¤,"Rn-222 (Radon), 1 m Tie",kBq m-3,62.0000000000,712858,5559013,715,"Ordovizium, Tieferes Ordovizium","marine Ablagerungen, metamorph",Phyllit,,,farm,,
11.950669065679859,50.158309552121572,StSch 4106 Fichtelgebirge 39,SzintillationszÃ¤,"Rn-222 (Radon), 1 m Tie",kBq m-3,127.0000000000,710754,5560401,715,"Ordovizium, Tieferes Ordovizium","marine Ablagerungen, metamorph",Phyllit,,,farmland,,
11.971876819715382,50.16993992356587,StSch 4106 Fichtelgebirge 40,SzintillationszÃ¤,"Rn-222 (Radon), 1 m Tie",kBq m-3,48.0000000000,712217,5561754,833,"Oberkarbon, z.T. Rotliegend",plutonitisch,"Granit, Granodiorit","jungvariszische Granitoide, postasturisch",,,,
11.97101914360996,50.178463055340799,StSch 4106 Fichtelgebirge 41,SzintillationszÃ¤,"Rn-222 (Radon), 1 m Tie",kBq m-3,330.0000000000,712118,5562699,833,"Oberkarbon, z.T. Rotliegend",plutonitisch,"Granit, Granodiorit","jungvariszische Granitoide, postasturisch",,meadow,,
11.915726702311636,50.149935944116677,StSch 4106 Fichtelgebirge 42,SzintillationszÃ¤,"Rn-222 (Radon), 1 m Tie",kBq m-3,569.0000000000,708295,5559372,833,"Oberkarbon, z.T. Rotliegend",plutonitisch,"Granit, Granodiorit","jungvariszische Granitoide, postasturisch",,,,forest
11.892811417440809,49.966550820964386,StSch 4106 Fichtelgebirge 43,SzintillationszÃ¤,"Rn-222 (Radon), 1 m Tie",kBq m-3,295.0000000000,707448,5538923,833,"Oberkarbon, z.T. Rotliegend",plutonitisch,"Granit, Granodiorit","jungvariszische Granitoide, postasturisch",,,,
11.870300168594071,49.983870054760374,StSch 4106 Fichtelgebirge 44,SzintillationszÃ¤,"Rn-222 (Radon), 1 m Tie",kBq m-3,422.0000000000,705760,5540786,833,"Oberkarbon, z.T. Rotliegend",plutonitisch,"Granit, Granodiorit","jungvariszische Granitoide, postasturisch",,,,
11.917575197961952,49.974062628447754,StSch 4106 Fichtelgebirge 45,SzintillationszÃ¤,"Rn-222 (Radon), 1 m Tie",kBq m-3,465.0000000000,709191,5539827,833,"Oberkarbon, z.T. Rotliegend",plutonitisch,"Granit, Granodiorit","jungvariszische Granitoide, postasturisch",,,,
11.898068796305967,49.994154376402399,StSch 4106 Fichtelgebirge 46,SzintillationszÃ¤,"Rn-222 (Radon), 1 m Tie",kBq m-3,258.0000000000,707706,5542006,833,"Oberkarbon, z.T. Rotliegend",plutonitisch,"Granit, Granodiorit","jungvariszische Granitoide, postasturisch",,,,
11.960263230461416,49.969354855989373,StSch 4106 Fichtelgebirge 47,SzintillationszÃ¤,"Rn-222 (Radon), 1 m Tie",kBq m-3,127.0000000000,712272,5539424,833,"Oberkarbon, z.T. Rotliegend",plutonitisch,"Granit, Granodiorit","jungvariszische Granitoide, postasturisch",,,,
12.074759483125,50.081220429459457,StSch 4106 Fichtelgebirge 128,SzintillationszÃ¤,"Rn-222 (Radon), 1 m Tie",kBq m-3,107.0000000000,719969,5552190,834,"z.T. Oberdevon, Karbon",plutonisch,Granit,variszischer Granit,,residential,,
12.041453335079741,50.074523820818094,StSch 4106 Fichtelgebirge 129,SzintillationszÃ¤,"Rn-222 (Radon), 1 m Tie",kBq m-3,234.0000000000,717617,5551348,834,"z.T. Oberdevon, Karbon",plutonisch,Granit,variszischer Granit,,farmland,,forest
12.010317048408149,50.081561450103372,StSch 4106 Fichtelgebirge 130,SzintillationszÃ¤,"Rn-222 (Radon), 1 m Tie",kBq m-3,98.0000000000,715358,5552040,834,"z.T. Oberdevon, Karbon",plutonisch,Granit,variszischer Granit,,farmland,,
12.005539657763368,50.09636697177632,StSch 4106 Fichtelgebirge 131,SzintillationszÃ¤,"Rn-222 (Radon), 1 m Tie",kBq m-3,77.0000000000,714950,5553672,834,"z.T. Oberdevon, Karbon",plutonisch,Granit,variszischer Granit,,farmland,,
12.014805168149106,50.113408027542299,StSch 4106 Fichtelgebirge 132,SzintillationszÃ¤,"Rn-222 (Radon), 1 m Tie",kBq m-3,848.0000000000,715536,5555593,834,"z.T. Oberdevon, Karbon",plutonisch,Granit,variszischer Granit,,farmland,,
11.988697259562407,50.126830932781992,StSch 4106 Fichtelgebirge 133,SzintillationszÃ¤,"Rn-222 (Radon), 1 m Tie",kBq m-3,229.0000000000,713610,5557010,834,"z.T. Oberdevon, Karbon",plutonisch,Granit,variszischer Granit,,farmland,,
12.016863386803337,50.166359285330778,StSch 4106 Fichtelgebirge 88,SzintillationszÃ¤,"Rn-222 (Radon), 1 m Tie",kBq m-3,116.0000000000,715445,5561485,833,"Oberkarbon, z.T. Rotliegend",plutonitisch,"Granit, Granodiorit","jungvariszische Granitoide, postasturisch",,,,
12.047038508251127,50.130378212494549,StSch 4106 Fichtelgebirge 89,SzintillationszÃ¤,"Rn-222 (Radon), 1 m Tie",kBq m-3,123.0000000000,717763,5557573,834,"z.T. Oberdevon, Karbon",plutonisch,Granit,variszischer Granit,,farmland,,
12.056919087391803,50.153643139084835,StSch 4106 Fichtelgebirge 90,SzintillationszÃ¤,"Rn-222 (Radon), 1 m Tie",kBq m-3,137.0000000000,718363,5560188,720,Kambrium ungegliedert,metamorph,"Phyllit, Kalkphyllit, Quarzit, Grauwacke",,,farmland,,
12.050998600118676,50.167086172096369,StSch 4106 Fichtelgebirge 91,SzintillationszÃ¤,"Rn-222 (Radon), 1 m Tie",kBq m-3,103.0000000000,717879,5561665,720,Kambrium ungegliedert,metamorph,"Phyllit, Kalkphyllit, Quarzit, Grauwacke",,,,,
12.052143526263743,50.185264107588985,StSch 4106 Fichtelgebirge 92,SzintillationszÃ¤,"Rn-222 (Radon), 1 m Tie",kBq m-3,542.0000000000,717878,5563689,833,"Oberkarbon, z.T. Rotliegend",plutonitisch,"Granit, Granodiorit","jungvariszische Granitoide, postasturisch",,,,
12.022674759982134,50.190524313589663,StSch 4106 Fichtelgebirge 93,SzintillationszÃ¤,"Rn-222 (Radon), 1 m Tie",kBq m-3,222.0000000000,715751,5564188,833,"Oberkarbon, z.T. Rotliegend",plutonitisch,"Granit, Granodiorit","jungvariszische Granitoide, postasturisch",,,,
12.113913905216016,50.234271429157651,StSch 4106 Fichtelgebirge 96,SzintillationszÃ¤,"Rn-222 (Radon), 1 m Tie",kBq m-3,58.0000000000,722059,5569319,715,"Ordovizium, Tieferes Ordovizium","marine Ablagerungen, metamorph",Phyllit,,,,,forest
12.086532786477248,50.221409555175683,StSch 4106 Fichtelgebirge 97,SzintillationszÃ¤,"Rn-222 (Radon), 1 m Tie",kBq m-3,69.0000000000,720166,5567808,715,"Ordovizium, Tieferes Ordovizium","marine Ablagerungen, metamorph",Phyllit,,,,,
12.112126538698176,50.222552454707127,StSch 4106 Fichtelgebirge 98,SzintillationszÃ¤,"Rn-222 (Radon), 1 m Tie",kBq m-3,74.0000000000,721986,5568011,715,"Ordovizium, Tieferes Ordovizium","marine Ablagerungen, metamorph",Phyllit,,,farmland,,
12.065501031243276,50.211144593976421,StSch 4106 Fichtelgebirge 99,SzintillationszÃ¤,"Rn-222 (Radon), 1 m Tie",kBq m-3,46.0000000000,718713,5566605,715,"Ordovizium, Tieferes Ordovizium","marine Ablagerungen, metamorph",Phyllit,,,,,
12.034068071906345,50.224339903571028,StSch 4106 Fichtelgebirge 100,SzintillationszÃ¤,"Rn-222 (Radon), 1 m Tie",kBq m-3,62.0000000000,716411,5567980,715,"Ordovizium, Tieferes Ordovizium","marine Ablagerungen, metamorph",Phyllit,,,farmland,,
12.047150875365329,50.240828763240664,StSch 4106 Fichtelgebirge 101,SzintillationszÃ¤,"Rn-222 (Radon), 1 m Tie",kBq m-3,55.0000000000,717269,5569851,715,"Ordovizium, Tieferes Ordovizium","marine Ablagerungen, metamorph",Phyllit,,,farmland,,forest
12.034801209076347,50.200112500878745,StSch 4106 Fichtelgebirge 102,SzintillationszÃ¤,"Rn-222 (Radon), 1 m Tie",kBq m-3,298.0000000000,716573,5565289,715,"Ordovizium, Tieferes Ordovizium","marine Ablagerungen, metamorph",Phyllit,,,,,
12.086235594540485,50.189445362193254,StSch 4106 Fichtelgebirge 103,SzintillationszÃ¤,"Rn-222 (Radon), 1 m Tie",kBq m-3,45.0000000000,720292,5564254,720,Kambrium ungegliedert,metamorph,"Phyllit, Kalkphyllit, Quarzit, Grauwacke",,,farmland,,
12.122582346199108,50.197802181691209,StSch 4106 Fichtelgebirge 104,SzintillationszÃ¤,"Rn-222 (Radon), 1 m Tie",kBq m-3,22.0000000000,722847,5565291,720,Kambrium ungegliedert,metamorph,"Phyllit, Kalkphyllit, Quarzit, Grauwacke",,,residential,,
12.140630124813047,50.208209600336893,StSch 4106 Fichtelgebirge 105,SzintillationszÃ¤,"Rn-222 (Radon), 1 m Tie",kBq m-3,52.0000000000,724086,5566502,720,Kambrium ungegliedert,metamorph,"Phyllit, Kalkphyllit, Quarzit, Grauwacke",,,farmland,,
12.194352816315952,50.183542182995133,StSch 4106 Fichtelgebirge 106,SzintillationszÃ¤,"Rn-222 (Radon), 1 m Tie",kBq m-3,241.0000000000,728036,5563923,834,"z.T. Oberdevon, Karbon",plutonisch,Granit,variszischer Granit,,farmland,,
12.155720745180041,50.179435265170902,StSch 4106 Fichtelgebirge 107,SzintillationszÃ¤,"Rn-222 (Radon), 1 m Tie",kBq m-3,191.0000000000,725298,5563349,845,Oberes Proterozoikum - Altpal„ozoikum,metamorphes Intrusivgestein,"Orthogneis: granitisch, granodioritisch","šberg„nge zu Migmatiten; Metamorphose pr„-? bis frh(?)-variszisch",,farmland,,
12.161600176027182,50.173004863133833,StSch 4106 Fichtelgebirge 108,SzintillationszÃ¤,"Rn-222 (Radon), 1 m Tie",kBq m-3,55.0000000000,725748,5562652,834,"z.T. Oberdevon, Karbon",plutonisch,Granit,variszischer Granit,,farmland,,
12.194251620831679,50.167963398122382,StSch 4106 Fichtelgebirge 109,SzintillationszÃ¤,"Rn-222 (Radon), 1 m Tie",kBq m-3,104.0000000000,728103,5562191,834,"z.T. Oberdevon, Karbon",plutonisch,Granit,variszischer Granit,,farmland,,
12.195073939238048,50.15405046437197,StSch 4106 Fichtelgebirge 110,SzintillationszÃ¤,"Rn-222 (Radon), 1 m Tie",kBq m-3,76.0000000000,728228,5560647,834,"z.T. Oberdevon, Karbon",plutonisch,Granit,variszischer Granit,,,,
12.17137064163669,50.14520067848494,StSch 4106 Fichtelgebirge 111,SzintillationszÃ¤,"Rn-222 (Radon), 1 m Tie",kBq m-3,50.0000000000,726577,5559591,834,"z.T. Oberdevon, Karbon",plutonisch,Granit,variszischer Granit,,,,
12.193913502767366,50.139796260038331,StSch 4106 Fichtelgebirge 112,SzintillationszÃ¤,"Rn-222 (Radon), 1 m Tie",kBq m-3,48.0000000000,728213,5559059,834,"z.T. Oberdevon, Karbon",plutonisch,Granit,variszischer Granit,,,,
12.16271611479497,50.129036696306294,StSch 4106 Fichtelgebirge 113,SzintillationszÃ¤,"Rn-222 (Radon), 1 m Tie",kBq m-3,168.0000000000,726035,5557768,834,"z.T. Oberdevon, Karbon",plutonisch,Granit,variszischer Granit,,farmland,,
12.139982876277882,50.123176906224018,StSch 4106 Fichtelgebirge 114,SzintillationszÃ¤,"Rn-222 (Radon), 1 m Tie",kBq m-3,34.0000000000,724438,5557048,834,"z.T. Oberdevon, Karbon",plutonisch,Granit,variszischer Granit,,farmland,,
12.106759229503785,50.131961052910562,StSch 4106 Fichtelgebirge 115,SzintillationszÃ¤,"Rn-222 (Radon), 1 m Tie",kBq m-3,96.0000000000,722023,5557925,834,"z.T. Oberdevon, Karbon",plutonisch,Granit,variszischer Granit,,,,
12.087452923279729,50.142938964826691,StSch 4106 Fichtelgebirge 116,SzintillationszÃ¤,"Rn-222 (Radon), 1 m Tie",kBq m-3,119.0000000000,720593,5559088,720,Kambrium ungegliedert,metamorph,"Phyllit, Kalkphyllit, Quarzit, Grauwacke",,,,,forest
12.107814514512112,50.1549270482354,StSch 4106 Fichtelgebirge 117,SzintillationszÃ¤,"Rn-222 (Radon), 1 m Tie",kBq m-3,99.0000000000,721992,5560481,720,Kambrium ungegliedert,metamorph,"Phyllit, Kalkphyllit, Quarzit, Grauwacke",,,residential,,
12.02387009342333,50.167976134985054,StSch 4106 Fichtelgebirge 118,SzintillationszÃ¤,"Rn-222 (Radon), 1 m Tie",kBq m-3,77.0000000000,715938,5561685,833,"Oberkarbon, z.T. Rotliegend",plutonitisch,"Granit, Granodiorit","jungvariszische Granitoide, postasturisch",,,,
12.046072440978763,50.142044537900894,StSch 4106 Fichtelgebirge 119,SzintillationszÃ¤,"Rn-222 (Radon), 1 m Tie",kBq m-3,34.0000000000,717641,5558867,834,"z.T. Oberdevon, Karbon",plutonisch,Granit,variszischer Granit,,,,forest
12.05673821766538,50.119642573507143,StSch 4106 Fichtelgebirge 120,SzintillationszÃ¤,"Rn-222 (Radon), 1 m Tie",kBq m-3,127.0000000000,718505,5556408,834,"z.T. Oberdevon, Karbon",plutonisch,Granit,variszischer Granit,,,,forest
12.089870790317375,50.092927756238439,StSch 4106 Fichtelgebirge 121,SzintillationszÃ¤,"Rn-222 (Radon), 1 m Tie",kBq m-3,116.0000000000,720996,5553536,834,"z.T. Oberdevon, Karbon",plutonisch,Granit,variszischer Granit,,farmland,,
12.133320356226829,50.110726300550944,StSch 4106 Fichtelgebirge 122,SzintillationszÃ¤,"Rn-222 (Radon), 1 m Tie",kBq m-3,171.0000000000,724020,5555644,834,"z.T. Oberdevon, Karbon",plutonisch,Granit,variszischer Granit,,,,
12.175366450484448,50.107468814843557,StSch 4106 Fichtelgebirge 123,SzintillationszÃ¤,"Rn-222 (Radon), 1 m Tie",kBq m-3,208.0000000000,727041,5555409,834,"z.T. Oberdevon, Karbon",plutonisch,Granit,variszischer Granit,,,,
12.175024567865135,50.112237231197085,StSch 4106 Fichtelgebirge 124,SzintillationszÃ¤,"Rn-222 (Radon), 1 m Tie",kBq m-3,53.0000000000,726994,5555938,834,"z.T. Oberdevon, Karbon",plutonisch,Granit,variszischer Granit,,meadow,,riverbank
12.171092643530216,50.091059464900269,StSch 4106 Fichtelgebirge 125,SzintillationszÃ¤,"Rn-222 (Radon), 1 m Tie",kBq m-3,34.0000000000,726813,5553572,834,"z.T. Oberdevon, Karbon",plutonisch,Granit,variszischer Granit,,,,
12.141293127351021,50.091906353236354,StSch 4106 Fichtelgebirge 126,SzintillationszÃ¤,"Rn-222 (Radon), 1 m Tie",kBq m-3,187.0000000000,724678,5553576,834,"z.T. Oberdevon, Karbon",plutonisch,Granit,variszischer Granit,,farmland,,
12.105525605573442,50.085249702137894,StSch 4106 Fichtelgebirge 127,SzintillationszÃ¤,"Rn-222 (Radon), 1 m Tie",kBq m-3,103.0000000000,722151,5552729,834,"z.T. Oberdevon, Karbon",plutonisch,Granit,variszischer Granit,,,,
12.354122799888598,49.709896878963285,StSch 4251 Oberpfalz 115,SzintillationszÃ¤,"Rn-222 (Radon), 1 m Tie",kBq m-3,45.0000000000,741801,5511778,761,Oberes Proterozoikum,metamorph,Paragneis,,,,,forest
12.393876300318993,49.708566624052267,StSch 4251 Oberpfalz 116,SzintillationszÃ¤,"Rn-222 (Radon), 1 m Tie",kBq m-3,219.0000000000,744673,5511759,833,"Oberkarbon, z.T. Rotliegend",plutonitisch,"Granit, Granodiorit","jungvariszische Granitoide, postasturisch",,,,forest
12.432664570092639,49.716392408137899,StSch 4251 Oberpfalz 117,SzintillationszÃ¤,"Rn-222 (Radon), 1 m Tie",kBq m-3,22.0000000000,747429,5512756,760,Oberes Proterozoikum,metamorph,Glimmerschiefer,z.T. auch glimmerreicher Gneis,,,,forest
12.396053609278798,49.729223007376646,StSch 4251 Oberpfalz 118,SzintillationszÃ¤,"Rn-222 (Radon), 1 m Tie",kBq m-3,691.0000000000,744726,5514062,833,"Oberkarbon, z.T. Rotliegend",plutonitisch,"Granit, Granodiorit","jungvariszische Granitoide, postasturisch",,,,forest
12.362573114078094,49.731388410731043,StSch 4251 Oberpfalz 119,SzintillationszÃ¤,"Rn-222 (Radon), 1 m Tie",kBq m-3,212.0000000000,742303,5514194,833,"Oberkarbon, z.T. Rotliegend",plutonitisch,"Granit, Granodiorit","jungvariszische Granitoide, postasturisch",,,,forest
12.357068808941801,49.761823110157167,StSch 4251 Oberpfalz 120,SzintillationszÃ¤,"Rn-222 (Radon), 1 m Tie",kBq m-3,396.0000000000,741755,5517559,833,"Oberkarbon, z.T. Rotliegend",plutonitisch,"Granit, Granodiorit","jungvariszische Granitoide, postasturisch",,,,forest
12.398379819772977,49.763487473297253,StSch 4251 Oberpfalz 121,SzintillationszÃ¤,"Rn-222 (Radon), 1 m Tie",kBq m-3,41.0000000000,744721,5517878,761,Oberes Proterozoikum,metamorph,Paragneis,,,,,forest
12.437978572919047,49.787806642087546,StSch 4251 Oberpfalz 122,SzintillationszÃ¤,"Rn-222 (Radon), 1 m Tie",kBq m-3,337.0000000000,747448,5520711,761,Oberes Proterozoikum,metamorph,Paragneis,,,,,forest
12.28175582470495,49.782255724559832,StSch 4251 Oberpfalz 123,SzintillationszÃ¤,"Rn-222 (Radon), 1 m Tie",kBq m-3,20.0000000000,736233,5519590,834,"z.T. Oberdevon, Karbon",plutonisch,Granit,variszischer Granit,,,,forest
12.343307369375237,49.776382659632858,StSch 4251 Oberpfalz 124,SzintillationszÃ¤,"Rn-222 (Radon), 1 m Tie",kBq m-3,332.0000000000,740692,5519133,833,"Oberkarbon, z.T. Rotliegend",plutonitisch,"Granit, Granodiorit","jungvariszische Granitoide, postasturisch",,,,forest
11.954216406003969,49.616114016307151,StSch 4251 Oberpfalz 125,SzintillationszÃ¤,"Rn-222 (Radon), 1 m Tie",kBq m-3,6.0000000000,713386,5500142,608,"Trias, Buntsandstein ungegliedert",,"Sandstein, Schluffstein, Tonstein",,,,,
11.971949852808693,49.633337998816138,StSch 4251 Oberpfalz 126,SzintillationszÃ¤,"Rn-222 (Radon), 1 m Tie",kBq m-3,7.0000000000,714591,5502107,659,"Perm, Oberrotliegend","fluviatil, fanglomeratisch","Sandstein, Tonstein",Fanglomerat,,,,
11.935650325085167,49.635029608970505,StSch 4251 Oberpfalz 127,SzintillationszÃ¤,"Rn-222 (Radon), 1 m Tie",kBq m-3,7.0000000000,711963,5502192,659,"Perm, Oberrotliegend","fluviatil, fanglomeratisch","Sandstein, Tonstein",Fanglomerat,,,,
11.911600604781514,49.642870599836641,StSch 4251 Oberpfalz 128,SzintillationszÃ¤,"Rn-222 (Radon), 1 m Tie",kBq m-3,9.0000000000,710193,5502996,659,"Perm, Oberrotliegend","fluviatil, fanglomeratisch","Sandstein, Tonstein",Fanglomerat,,,,
11.9321839949225,49.657329887648324,StSch 4251 Oberpfalz 129,SzintillationszÃ¤,"Rn-222 (Radon), 1 m Tie",kBq m-3,7.0000000000,711616,5504661,659,"Perm, Oberrotliegend","fluviatil, fanglomeratisch","Sandstein, Tonstein",Fanglomerat,,,,
11.979047751972686,49.660657912261001,StSch 4251 Oberpfalz 130,SzintillationszÃ¤,"Rn-222 (Radon), 1 m Tie",kBq m-3,5.0000000000,714983,5505164,608,"Trias, Buntsandstein ungegliedert",,"Sandstein, Schluffstein, Tonstein",,,,,forest
11.991327070978622,49.693628287657006,StSch 4251 Oberpfalz 131,SzintillationszÃ¤,"Rn-222 (Radon), 1 m Tie",kBq m-3,5.0000000000,715723,5508864,85,"Weichsel-(Wrm-)Kaltzeit; Niederterrasse",fluviatil,"Sand, Kies","z.T. mit Auenlehmdecke (/T,U,S/Lf); z.T. Niederungssande (Talsande) eingeschlossen",,,,
11.968197505771242,49.655673818132229,StSch 4251 Oberpfalz 132,SzintillationszÃ¤,"Rn-222 (Radon), 1 m Tie",kBq m-3,5.0000000000,714222,5504579,659,"Perm, Oberrotliegend","fluviatil, fanglomeratisch","Sandstein, Tonstein",Fanglomerat,,,,forest
12.351131739987357,49.605959380378607,StSch 4251 Oberpfalz 133,SzintillationszÃ¤,"Rn-222 (Radon), 1 m Tie",kBq m-3,12.0000000000,742101,5500216,761,Oberes Proterozoikum,metamorph,Paragneis,,,,,
12.405973026711733,49.614343833766462,StSch 4251 Oberpfalz 134,SzintillationszÃ¤,"Rn-222 (Radon), 1 m Tie",kBq m-3,15.0000000000,746020,5501326,761,Oberes Proterozoikum,metamorph,Paragneis,,,,,forest
12.451398286471257,49.613662643777772,StSch 4251 Oberpfalz 135,SzintillationszÃ¤,"Rn-222 (Radon), 1 m Tie",kBq m-3,57.0000000000,749304,5501400,761,Oberes Proterozoikum,metamorph,Paragneis,,,,,
12.489245274426967,49.606543481646028,StSch 4251 Oberpfalz 136,SzintillationszÃ¤,"Rn-222 (Radon), 1 m Tie",kBq m-3,50.0000000000,752074,5500735,834,"z.T. Oberdevon, Karbon",plutonisch,Granit,variszischer Granit,,,,forest
12.467745547635918,49.641838862224823,StSch 4251 Oberpfalz 137,SzintillationszÃ¤,"Rn-222 (Radon), 1 m Tie",kBq m-3,168.0000000000,750340,5504586,761,Oberes Proterozoikum,metamorph,Paragneis,,,,,
12.434201018332971,49.632169164454872,StSch 4251 Oberpfalz 138,SzintillationszÃ¤,"Rn-222 (Radon), 1 m Tie",kBq m-3,39.0000000000,747968,5503400,761,Oberes Proterozoikum,metamorph,Paragneis,,,,,forest
12.387999377361309,49.543470004729052,StSch 4251 Oberpfalz 139,SzintillationszÃ¤,"Rn-222 (Radon), 1 m Tie",kBq m-3,59.0000000000,745077,5493390,761,Oberes Proterozoikum,metamorph,Paragneis,,,,,forest
12.361843548951933,49.639882500310605,StSch 4251 Oberpfalz 140,SzintillationszÃ¤,"Rn-222 (Radon), 1 m Tie",kBq m-3,23.0000000000,742706,5504021,761,Oberes Proterozoikum,metamorph,Paragneis,,,,,
12.355477700017623,49.658106538389134,StSch 4251 Oberpfalz 141,SzintillationszÃ¤,"Rn-222 (Radon), 1 m Tie",kBq m-3,29.0000000000,742156,5506026,761,Oberes Proterozoikum,metamorph,Paragneis,,,,,
12.388999863816142,49.663040277540318,StSch 4251 Oberpfalz 142,SzintillationszÃ¤,"Rn-222 (Radon), 1 m Tie",kBq m-3,59.0000000000,744550,5506683,761,Oberes Proterozoikum,metamorph,Paragneis,,,,,
12.43365465944494,49.664548347756423,StSch 4251 Oberpfalz 143,SzintillationszÃ¤,"Rn-222 (Radon), 1 m Tie",kBq m-3,21.0000000000,747764,5506997,761,Oberes Proterozoikum,metamorph,Paragneis,,,,,forest
12.47806301573806,49.661394995567932,StSch 4251 Oberpfalz 144,SzintillationszÃ¤,"Rn-222 (Radon), 1 m Tie",kBq m-3,101.0000000000,750984,5506794,761,Oberes Proterozoikum,metamorph,Paragneis,,,,,forest
12.474632487751817,49.687536138174096,StSch 4251 Oberpfalz 145,SzintillationszÃ¤,"Rn-222 (Radon), 1 m Tie",kBq m-3,64.0000000000,750602,5509688,761,Oberes Proterozoikum,metamorph,Paragneis,,,,,forest
12.443554513215185,49.679495281656131,StSch 4251 Oberpfalz 146,SzintillationszÃ¤,"Rn-222 (Radon), 1 m Tie",kBq m-3,31.0000000000,748402,5508691,761,Oberes Proterozoikum,metamorph,Paragneis,,,,,forest
12.39923038189225,49.67855702645376,StSch 4251 Oberpfalz 147,SzintillationszÃ¤,"Rn-222 (Radon), 1 m Tie",kBq m-3,25.0000000000,745210,5508441,760,Oberes Proterozoikum,metamorph,Glimmerschiefer,z.T. auch glimmerreicher Gneis,,,,forest
12.345212711567976,49.693708287460083,StSch 4251 Oberpfalz 148,SzintillationszÃ¤,"Rn-222 (Radon), 1 m Tie",kBq m-3,29.0000000000,741239,5509950,761,Oberes Proterozoikum,metamorph,Paragneis,,,,,forest
12.520182531521566,49.604921869147482,StSch 4251 Oberpfalz 149,SzintillationszÃ¤,"Rn-222 (Radon), 1 m Tie",kBq m-3,106.0000000000,754317,5500659,834,"z.T. Oberdevon, Karbon",plutonisch,Granit,variszischer Granit,,,,
12.511559069163409,49.628235346878441,StSch 4251 Oberpfalz 150,SzintillationszÃ¤,"Rn-222 (Radon), 1 m Tie",kBq m-3,29.0000000000,753573,5503221,834,"z.T. Oberdevon, Karbon",plutonisch,Granit,variszischer Granit,,,,forest
12.503202779376521,49.662507676373956,StSch 4251 Oberpfalz 151,SzintillationszÃ¤,"Rn-222 (Radon), 1 m Tie",kBq m-3,134.0000000000,752792,5507002,761,Oberes Proterozoikum,metamorph,Paragneis,,,,,forest
12.06852620409923,49.582719827288727,StSch 4251 Oberpfalz 152,SzintillationszÃ¤,"Rn-222 (Radon), 1 m Tie",kBq m-3,15.0000000000,721793,5496761,659,"Perm, Oberrotliegend","fluviatil, fanglomeratisch","Sandstein, Tonstein",Fanglomerat,,,,
12.111024911931642,49.582573884671717,StSch 4251 Oberpfalz 153,SzintillationszÃ¤,"Rn-222 (Radon), 1 m Tie",kBq m-3,16.0000000000,724865,5496871,659,"Perm, Oberrotliegend","fluviatil, fanglomeratisch","Sandstein, Tonstein",Fanglomerat,,,,forest
12.143923554049728,49.586992209901453,StSch 4251 Oberpfalz 154,SzintillationszÃ¤,"Rn-222 (Radon), 1 m Tie",kBq m-3,23.0000000000,727222,5497461,24,Holoz„n,fluviatil,"Sand, Kies, Schotter",z.T. unter Aulehmdecke [in den Alpen mit pleistoz„nen Terassen und Hangablagerungen,,residential,,
12.143129661356207,49.561516676839609,StSch 4251 Oberpfalz 155,SzintillationszÃ¤,"Rn-222 (Radon), 1 m Tie",kBq m-3,31.0000000000,727283,5494627,834,"z.T. Oberdevon, Karbon",plutonisch,Granit,variszischer Granit,,,,forest
11.99265922283424,49.764234261966386,StSch 4251 Oberpfalz 94,SzintillationszÃ¤,"Rn-222 (Radon), 1 m Tie",kBq m-3,11.0000000000,715506,5516716,596,"Trias, Mittlerer Keuper, Stubensandstein",,Sandstein - Tonstein - Wechsellagen mit dolomitischen Einlagerungen,Sandsteinkeuper,,,,
11.983905171241172,49.792421107153721,StSch 4251 Oberpfalz 95,SzintillationszÃ¤,"Rn-222 (Radon), 1 m Tie",kBq m-3,27.0000000000,714751,5519824,546,"Kreide, Oberkreide",limnisch - fluviatile Ablagerungen,"Sand, Ton; gelegentlich Konglomerat",epikontinentale Fazies,,,,
11.933317780296587,49.784321565355242,StSch 4251 Oberpfalz 96,SzintillationszÃ¤,"Rn-222 (Radon), 1 m Tie",kBq m-3,5.0000000000,711146,5518780,596,"Trias, Mittlerer Keuper, Stubensandstein",,Sandstein - Tonstein - Wechsellagen mit dolomitischen Einlagerungen,Sandsteinkeuper,,,,
11.895879019046379,49.785129066555115,StSch 4251 Oberpfalz 97,SzintillationszÃ¤,"Rn-222 (Radon), 1 m Tie",kBq m-3,5.0000000000,708448,5518765,596,"Trias, Mittlerer Keuper, Stubensandstein",,Sandstein - Tonstein - Wechsellagen mit dolomitischen Einlagerungen,Sandsteinkeuper,,,,
11.747512590006393,49.786072763193005,StSch 4251 Oberpfalz 98,SzintillationszÃ¤,"Rn-222 (Radon), 1 m Tie",kBq m-3,23.0000000000,697766,5518468,597,"Trias, Mittlerer Keuper, Gipskeuper, Schilfsandstein",,Tonstein mit Lagen von Steinmergel und Gips,,,,,
12.193347337751881,49.706852486154943,StSch 4251 Oberpfalz 99,SzintillationszÃ¤,"Rn-222 (Radon), 1 m Tie",kBq m-3,62.0000000000,730227,5510934,24,Holoz„n,fluviatil,"Sand, Kies, Schotter",z.T. unter Aulehmdecke [in den Alpen mit pleistoz„nen Terassen und Hangablagerungen,,,,
12.246329935838807,49.703974593064167,StSch 4251 Oberpfalz 100,SzintillationszÃ¤,"Rn-222 (Radon), 1 m Tie",kBq m-3,114.0000000000,734060,5510778,834,"z.T. Oberdevon, Karbon",plutonisch,Granit,variszischer Granit,,,,
12.27516311360875,49.708200275910585,StSch 4251 Oberpfalz 101,SzintillationszÃ¤,"Rn-222 (Radon), 1 m Tie",kBq m-3,71.0000000000,736118,5511338,834,"z.T. Oberdevon, Karbon",plutonisch,Granit,variszischer Granit,,,,
12.323822755994396,49.712750638674997,StSch 4251 Oberpfalz 102,SzintillationszÃ¤,"Rn-222 (Radon), 1 m Tie",kBq m-3,436.0000000000,739603,5511998,760,Oberes Proterozoikum,metamorph,Glimmerschiefer,z.T. auch glimmerreicher Gneis,,,,forest
12.312750636635487,49.741066671790627,StSch 4251 Oberpfalz 103,SzintillationszÃ¤,"Rn-222 (Radon), 1 m Tie",kBq m-3,12.0000000000,738666,5515110,833,"Oberkarbon, z.T. Rotliegend",plutonitisch,"Granit, Granodiorit","jungvariszische Granitoide, postasturisch",,,,
12.273179406200432,49.741194020290948,StSch 4251 Oberpfalz 104,SzintillationszÃ¤,"Rn-222 (Radon), 1 m Tie",kBq m-3,38.0000000000,735815,5514999,858,Oberes Proterozoikum,berwiegend metamorph,,Typische Gesteine: Amphibolite,,,,
12.231182587615733,49.726341880372303,StSch 4251 Oberpfalz 105,SzintillationszÃ¤,"Rn-222 (Radon), 1 m Tie",kBq m-3,23.0000000000,732861,5513217,834,"z.T. Oberdevon, Karbon",plutonisch,Granit,variszischer Granit,,,,
12.18617473922709,49.729515145121702,StSch 4251 Oberpfalz 106,SzintillationszÃ¤,"Rn-222 (Radon), 1 m Tie",kBq m-3,44.0000000000,729603,5513431,760,Oberes Proterozoikum,metamorph,Glimmerschiefer,z.T. auch glimmerreicher Gneis,,residential,,
12.194520634536659,49.762321132029314,StSch 4251 Oberpfalz 107,SzintillationszÃ¤,"Rn-222 (Radon), 1 m Tie",kBq m-3,48.0000000000,730049,5517103,834,"z.T. Oberdevon, Karbon",plutonisch,Granit,variszischer Granit,,,,forest
12.217348020566824,49.761607887365869,StSch 4251 Oberpfalz 108,SzintillationszÃ¤,"Rn-222 (Radon), 1 m Tie",kBq m-3,39.0000000000,731696,5517094,838,Karbon,plutonisch,"Diorit, Redwitzit","Redwitzit = Granitvariante, hohe Biotit-, Hornblendegehalte (sdl. Prag auch Gabbro)",,,,
12.270495894666393,49.760523163226672,StSch 4251 Oberpfalz 109,SzintillationszÃ¤,"Rn-222 (Radon), 1 m Tie",kBq m-3,47.0000000000,735528,5517139,858,Oberes Proterozoikum,berwiegend metamorph,,Typische Gesteine: Amphibolite,,,,
12.309288416955312,49.762596380410208,StSch 4251 Oberpfalz 110,SzintillationszÃ¤,"Rn-222 (Radon), 1 m Tie",kBq m-3,296.0000000000,738311,5517492,833,"Oberkarbon, z.T. Rotliegend",plutonitisch,"Granit, Granodiorit","jungvariszische Granitoide, postasturisch",,,,
12.315603306399652,49.791817507473979,StSch 4251 Oberpfalz 111,SzintillationszÃ¤,"Rn-222 (Radon), 1 m Tie",kBq m-3,266.0000000000,738622,5520760,834,"z.T. Oberdevon, Karbon",plutonisch,Granit,variszischer Granit,,,,
12.260812644489578,49.787570910180193,StSch 4251 Oberpfalz 112,SzintillationszÃ¤,"Rn-222 (Radon), 1 m Tie",kBq m-3,113.0000000000,734700,5520115,834,"z.T. Oberdevon, Karbon",plutonisch,Granit,variszischer Granit,,,,forest
12.233509484097247,49.787608042993028,StSch 4251 Oberpfalz 113,SzintillationszÃ¤,"Rn-222 (Radon), 1 m Tie",kBq m-3,208.0000000000,732735,5520034,834,"z.T. Oberdevon, Karbon",plutonisch,Granit,variszischer Granit,,,Rohrbach Teiche,water
12.192022022790464,49.779456843253818,StSch 4251 Oberpfalz 114,SzintillationszÃ¤,"Rn-222 (Radon), 1 m Tie",kBq m-3,73.0000000000,729788,5519000,838,Karbon,plutonisch,"Diorit, Redwitzit","Redwitzit = Granitvariante, hohe Biotit-, Hornblendegehalte (sdl. Prag auch Gabbro)",,,,
11.772845330444722,49.537810250588699,StSch 4251 FrÃ¤nkische Alb 33,SzintillationszÃ¤,"Rn-222 (Radon), 1 m Tie",kBq m-3,21.0000000000,700608,5490939,596,"Trias, Mittlerer Keuper, Stubensandstein",,Sandstein - Tonstein - Wechsellagen mit dolomitischen Einlagerungen,Sandsteinkeuper,,,,
11.681512861510702,49.454219955330082,StSch 4251 FrÃ¤nkische Alb 34,SzintillationszÃ¤,"Rn-222 (Radon), 1 m Tie",kBq m-3,6.0000000000,694332,5481408,579,"Jura, Oberer Jura (Malm)","marine Ablagerungen, marin - brackisch","Mergelstein, Kalkstein, Dolomitstein, Kalksandstein",,,residential,,
11.734234186380842,49.621424036279855,StSch 4251 FrÃ¤nkische Alb 35,SzintillationszÃ¤,"Rn-222 (Radon), 1 m Tie",kBq m-3,51.0000000000,697477,5500131,545,"Kreide, Oberkreide ungegliedert",,"Kalk- und Mergelstein, Tonstein, Sandstein",Sandstein: bes. Elbe-B”hmen,,,,forest
12.061167842517106,50.011175480324248,StSch 4251 Oberpfalz 1,SzintillationszÃ¤,"Rn-222 (Radon), 1 m Tie",kBq m-3,54.0000000000,719316,5544364,760,Oberes Proterozoikum,metamorph,Glimmerschiefer,z.T. auch glimmerreicher Gneis,,,,
12.115667487481952,50.010515280992486,StSch 4251 Oberpfalz 2,SzintillationszÃ¤,"Rn-222 (Radon), 1 m Tie",kBq m-3,83.0000000000,723223,5544452,838,Karbon,plutonisch,"Diorit, Redwitzit","Redwitzit = Granitvariante, hohe Biotit-, Hornblendegehalte (sdl. Prag auch Gabbro)",,,,
12.15745874798348,50.038739798926038,StSch 4251 Oberpfalz 3,SzintillationszÃ¤,"Rn-222 (Radon), 1 m Tie",kBq m-3,113.0000000000,726084,5547715,838,Karbon,plutonisch,"Diorit, Redwitzit","Redwitzit = Granitvariante, hohe Biotit-, Hornblendegehalte (sdl. Prag auch Gabbro)",,,,
12.237307316129677,50.017852034929405,StSch 4251 Oberpfalz 4,SzintillationszÃ¤,"Rn-222 (Radon), 1 m Tie",kBq m-3,76.0000000000,731901,5545638,715,"Ordovizium, Tieferes Ordovizium","marine Ablagerungen, metamorph",Phyllit,,,,,
12.286168427734834,50.015694518833605,StSch 4251 Oberpfalz 5,SzintillationszÃ¤,"Rn-222 (Radon), 1 m Tie",kBq m-3,10.0000000000,735411,5545551,845,Oberes Proterozoikum - Altpal„ozoikum,metamorphes Intrusivgestein,"Orthogneis: granitisch, granodioritisch","šberg„nge zu Migmatiten; Metamorphose pr„-? bis frh(?)-variszisch",,,,
12.312104357579738,50.018456055697612,StSch 4251 Oberpfalz 6,SzintillationszÃ¤,"Rn-222 (Radon), 1 m Tie",kBq m-3,14.0000000000,737255,5545940,715,"Ordovizium, Tieferes Ordovizium","marine Ablagerungen, metamorph",Phyllit,,,,,
12.317027248101535,50.040851867999848,StSch 4251 Oberpfalz 7,SzintillationszÃ¤,"Rn-222 (Radon), 1 m Tie",kBq m-3,36.0000000000,737497,5548445,715,"Ordovizium, Tieferes Ordovizium","marine Ablagerungen, metamorph",Phyllit,,,,,
12.272618955245289,50.04064746057194,StSch 4251 Oberpfalz 8,SzintillationszÃ¤,"Rn-222 (Radon), 1 m Tie",kBq m-3,33.0000000000,734319,5548282,715,"Ordovizium, Tieferes Ordovizium","marine Ablagerungen, metamorph",Phyllit,,,,,
12.235665628923465,50.039327555443606,StSch 4251 Oberpfalz 9,SzintillationszÃ¤,"Rn-222 (Radon), 1 m Tie",kBq m-3,13.0000000000,731680,5548020,715,"Ordovizium, Tieferes Ordovizium","marine Ablagerungen, metamorph",Phyllit,,,,,forest
12.186834926780422,50.044863339492146,StSch 4251 Oberpfalz 10,SzintillationszÃ¤,"Rn-222 (Radon), 1 m Tie",kBq m-3,44.0000000000,728158,5548485,721,Kambrium ungegliedert,metamorph,Glimmerschiefer,,,,,forest
12.244746291724026,50.069149066760794,StSch 4251 Oberpfalz 11,SzintillationszÃ¤,"Rn-222 (Radon), 1 m Tie",kBq m-3,54.0000000000,732186,5551363,721,Kambrium ungegliedert,metamorph,Glimmerschiefer,,,,,
12.264787512882064,50.078779599412954,StSch 4251 Oberpfalz 12,SzintillationszÃ¤,"Rn-222 (Radon), 1 m Tie",kBq m-3,13.0000000000,733573,5552496,721,Kambrium ungegliedert,metamorph,Glimmerschiefer,,,,,
12.242838452488812,50.073187873175243,StSch 4251 Oberpfalz 13,SzintillationszÃ¤,"Rn-222 (Radon), 1 m Tie",kBq m-3,106.0000000000,732030,5551806,721,Kambrium ungegliedert,metamorph,Glimmerschiefer,,,,,
12.343758309955126,50.035738586363316,StSch 4251 Oberpfalz 14,SzintillationszÃ¤,"Rn-222 (Radon), 1 m Tie",kBq m-3,5.0000000000,739436,5547962,712,"Ordovizium, Frauenbach-Schichten, Tremadoc, Phycoden-Schichten,Tremadoc bis Arenig",marine Ablagerungen,"Tonschiefer, Quarzit, Ger”llquarzit",bei Prag: unteres und mittleres Ordovizium,,farmland,,
12.353433882853729,50.012436551666966,StSch 4251 Oberpfalz 15,SzintillationszÃ¤,"Rn-222 (Radon), 1 m Tie",kBq m-3,102.0000000000,740245,5545403,713,oberes Ordovizium,marin,,bei Prag,,,,
12.024249500213299,49.912744645278494,StSch 4251 Oberpfalz 16,SzintillationszÃ¤,"Rn-222 (Radon), 1 m Tie",kBq m-3,146.0000000000,717114,5533315,715,"Ordovizium, Tieferes Ordovizium","marine Ablagerungen, metamorph",Phyllit,,,,,
12.065918829509943,49.905280062434166,StSch 4251 Oberpfalz 17,SzintillationszÃ¤,"Rn-222 (Radon), 1 m Tie",kBq m-3,101.0000000000,720139,5532607,834,"z.T. Oberdevon, Karbon",plutonisch,Granit,variszischer Granit,,,,
12.102754917741734,49.910587911882551,StSch 4251 Oberpfalz 18,SzintillationszÃ¤,"Rn-222 (Radon), 1 m Tie",kBq m-3,198.0000000000,722759,5533306,834,"z.T. Oberdevon, Karbon",plutonisch,Granit,variszischer Granit,,,,
12.155709610177608,49.91147871806217,StSch 4251 Oberpfalz 19,SzintillationszÃ¤,"Rn-222 (Radon), 1 m Tie",kBq m-3,369.0000000000,726556,5533564,760,Oberes Proterozoikum,metamorph,Glimmerschiefer,z.T. auch glimmerreicher Gneis,,,,
12.151889701059458,49.94154102428076,StSch 4251 Oberpfalz 20,SzintillationszÃ¤,"Rn-222 (Radon), 1 m Tie",kBq m-3,14.0000000000,726141,5536894,834,"z.T. Oberdevon, Karbon",plutonisch,Granit,variszischer Granit,,,,
12.099968142409152,49.93076951506432,StSch 4251 Oberpfalz 21,SzintillationszÃ¤,"Rn-222 (Radon), 1 m Tie",kBq m-3,178.0000000000,722466,5535541,791,Terti„r,Effusivgestein: Lava,"Alkalibasalt, Basanit, Tephrit, Nephelinit, Tholeyitbasalt, Olivinbasalt, Andesit","auch einige Vorkommen mit Trachyt, Phonolith, Latit",,,,
12.063420119220847,49.931120766611102,StSch 4251 Oberpfalz 22,SzintillationszÃ¤,"Rn-222 (Radon), 1 m Tie",kBq m-3,93.0000000000,719842,5535472,715,"Ordovizium, Tieferes Ordovizium","marine Ablagerungen, metamorph",Phyllit,,,,,
12.023068868741333,49.933727860132663,StSch 4251 Oberpfalz 23,SzintillationszÃ¤,"Rn-222 (Radon), 1 m Tie",kBq m-3,115.0000000000,716935,5535644,508,"Terti„r, Mioz„n",fluviatil - limnische Ablagerungen,"Kies, Sand, Ton",,,,,
12.029124163779452,49.959371097046194,StSch 4251 Oberpfalz 24,SzintillationszÃ¤,"Rn-222 (Radon), 1 m Tie",kBq m-3,42.0000000000,717254,5538512,760,Oberes Proterozoikum,metamorph,Glimmerschiefer,z.T. auch glimmerreicher Gneis,,,,
12.065336130355341,49.959318621401799,StSch 4251 Oberpfalz 25,SzintillationszÃ¤,"Rn-222 (Radon), 1 m Tie",kBq m-3,100.0000000000,719851,5538612,721,Kambrium ungegliedert,metamorph,Glimmerschiefer,,,,,forest
12.109184924039502,49.959401043407361,StSch 4251 Oberpfalz 26,SzintillationszÃ¤,"Rn-222 (Radon), 1 m Tie",kBq m-3,24.0000000000,722995,5538751,791,Terti„r,Effusivgestein: Lava,"Alkalibasalt, Basanit, Tephrit, Nephelinit, Tholeyitbasalt, Olivinbasalt, Andesit","auch einige Vorkommen mit Trachyt, Phonolith, Latit",,,,
12.14346582578119,49.956245147528222,StSch 4251 Oberpfalz 27,SzintillationszÃ¤,"Rn-222 (Radon), 1 m Tie",kBq m-3,36.0000000000,725468,5538503,834,"z.T. Oberdevon, Karbon",plutonisch,Granit,variszischer Granit,,,,
12.149550602209526,49.987495505361622,StSch 4251 Oberpfalz 28,SzintillationszÃ¤,"Rn-222 (Radon), 1 m Tie",kBq m-3,15.0000000000,725758,5541995,791,Terti„r,Effusivgestein: Lava,"Alkalibasalt, Basanit, Tephrit, Nephelinit, Tholeyitbasalt, Olivinbasalt, Andesit","auch einige Vorkommen mit Trachyt, Phonolith, Latit",,,,
12.087240630232913,49.977566556120813,StSch 4251 Oberpfalz 29,SzintillationszÃ¤,"Rn-222 (Radon), 1 m Tie",kBq m-3,34.0000000000,721338,5540705,845,Oberes Proterozoikum - Altpal„ozoikum,metamorphes Intrusivgestein,"Orthogneis: granitisch, granodioritisch","šberg„nge zu Migmatiten; Metamorphose pr„-? bis frh(?)-variszisch",,,,
12.044832516277795,49.979569973406448,StSch 4251 Oberpfalz 30,SzintillationszÃ¤,"Rn-222 (Radon), 1 m Tie",kBq m-3,40.0000000000,718289,5540803,508,"Terti„r, Mioz„n",fluviatil - limnische Ablagerungen,"Kies, Sand, Ton",,,,,
12.005029454911925,49.972835954609025,StSch 4251 Oberpfalz 31,SzintillationszÃ¤,"Rn-222 (Radon), 1 m Tie",kBq m-3,39.0000000000,715466,5539939,760,Oberes Proterozoikum,metamorph,Glimmerschiefer,z.T. auch glimmerreicher Gneis,,,,
12.349639656183648,49.906069586438711,StSch 4251 Oberpfalz 32,SzintillationszÃ¤,"Rn-222 (Radon), 1 m Tie",kBq m-3,9.0000000000,740503,5533568,508,"Terti„r, Mioz„n",fluviatil - limnische Ablagerungen,"Kies, Sand, Ton",,,,,
12.401037081800769,49.917464432565438,StSch 4251 Oberpfalz 33,SzintillationszÃ¤,"Rn-222 (Radon), 1 m Tie",kBq m-3,10.0000000000,744135,5535001,721,Kambrium ungegliedert,metamorph,Glimmerschiefer,,,,,
12.438044336259239,49.910991802190409,StSch 4251 Oberpfalz 34,SzintillationszÃ¤,"Rn-222 (Radon), 1 m Tie",kBq m-3,20.0000000000,746824,5534403,721,Kambrium ungegliedert,metamorph,Glimmerschiefer,,,farm,,
12.489596799627614,49.914902358116969,StSch 4251 Oberpfalz 35,SzintillationszÃ¤,"Rn-222 (Radon), 1 m Tie",kBq m-3,45.0000000000,750504,5535009,721,Kambrium ungegliedert,metamorph,Glimmerschiefer,,,,,
12.475874434761037,49.933317949499383,StSch 4251 Oberpfalz 36,SzintillationszÃ¤,"Rn-222 (Radon), 1 m Tie",kBq m-3,51.0000000000,749424,5537010,721,Kambrium ungegliedert,metamorph,Glimmerschiefer,,,,,
12.435085667898978,49.937755490307467,StSch 4251 Oberpfalz 37,SzintillationszÃ¤,"Rn-222 (Radon), 1 m Tie",kBq m-3,6.0000000000,746475,5537368,721,Kambrium ungegliedert,metamorph,Glimmerschiefer,,,,,
12.396294087034951,49.939573938514052,StSch 4251 Oberpfalz 38,SzintillationszÃ¤,"Rn-222 (Radon), 1 m Tie",kBq m-3,31.0000000000,743683,5537443,721,Kambrium ungegliedert,metamorph,Glimmerschiefer,,,,,
12.366098572850335,49.941354846594713,StSch 4251 Oberpfalz 39,SzintillationszÃ¤,"Rn-222 (Radon), 1 m Tie",kBq m-3,73.0000000000,741508,5537543,721,Kambrium ungegliedert,metamorph,Glimmerschiefer,,,,,
12.362273230570542,49.968879128261115,StSch 4251 Oberpfalz 40,SzintillationszÃ¤,"Rn-222 (Radon), 1 m Tie",kBq m-3,41.0000000000,741096,5540590,721,Kambrium ungegliedert,metamorph,Glimmerschiefer,,,,,
12.397460403189244,49.965639589253186,StSch 4251 Oberpfalz 41,SzintillationszÃ¤,"Rn-222 (Radon), 1 m Tie",kBq m-3,17.0000000000,743635,5540344,721,Kambrium ungegliedert,metamorph,Glimmerschiefer,,,,,
12.437326119659945,49.963726098754584,StSch 4251 Oberpfalz 42,SzintillationszÃ¤,"Rn-222 (Radon), 1 m Tie",kBq m-3,18.0000000000,746503,5540262,721,Kambrium ungegliedert,metamorph,Glimmerschiefer,,,,,
12.477381497858516,49.961001414503798,StSch 4251 Oberpfalz 43,SzintillationszÃ¤,"Rn-222 (Radon), 1 m Tie",kBq m-3,102.0000000000,749389,5540092,721,Kambrium ungegliedert,metamorph,Glimmerschiefer,,,,,
12.476656814853822,49.980735491639486,StSch 4251 Oberpfalz 44,SzintillationszÃ¤,"Rn-222 (Radon), 1 m Tie",kBq m-3,118.0000000000,749235,5542283,721,Kambrium ungegliedert,metamorph,Glimmerschiefer,,,,,
12.434961738291488,49.983589360308947,StSch 4251 Oberpfalz 45,SzintillationszÃ¤,"Rn-222 (Radon), 1 m Tie",kBq m-3,97.0000000000,746232,5542462,715,"Ordovizium, Tieferes Ordovizium","marine Ablagerungen, metamorph",Phyllit,,,farmland,,
12.397567059747256,49.990107810754459,StSch 4251 Oberpfalz 46,SzintillationszÃ¤,"Rn-222 (Radon), 1 m Tie",kBq m-3,25.0000000000,743519,5543064,712,"Ordovizium, Frauenbach-Schichten, Tremadoc, Phycoden-Schichten,Tremadoc bis Arenig",marine Ablagerungen,"Tonschiefer, Quarzit, Ger”llquarzit",bei Prag: unteres und mittleres Ordovizium,,farmland,,
12.356080225663515,49.985108861474409,StSch 4251 Oberpfalz 47,SzintillationszÃ¤,"Rn-222 (Radon), 1 m Tie",kBq m-3,66.0000000000,740571,5542374,715,"Ordovizium, Tieferes Ordovizium","marine Ablagerungen, metamorph",Phyllit,,,,,
12.511495121551329,49.906404108169667,StSch 4251 Oberpfalz 48,SzintillationszÃ¤,"Rn-222 (Radon), 1 m Tie",kBq m-3,19.0000000000,752120,5534138,760,Oberes Proterozoikum,metamorph,Glimmerschiefer,z.T. auch glimmerreicher Gneis,,farm,,
12.544554828625293,49.916679475565807,StSch 4251 Oberpfalz 49,SzintillationszÃ¤,"Rn-222 (Radon), 1 m Tie",kBq m-3,12.0000000000,754439,5535392,760,Oberes Proterozoikum,metamorph,Glimmerschiefer,z.T. auch glimmerreicher Gneis,,,,forest
12.505729932353765,49.92831563982854,StSch 4251 Oberpfalz 50,SzintillationszÃ¤,"Rn-222 (Radon), 1 m Tie",kBq m-3,56.0000000000,751592,5536554,760,Oberes Proterozoikum,metamorph,Glimmerschiefer,z.T. auch glimmerreicher Gneis,,,,
11.851069666387691,49.807841029435195,StSch 4251 Oberpfalz 51,SzintillationszÃ¤,"Rn-222 (Radon), 1 m Tie",kBq m-3,10.0000000000,705127,5521166,596,"Trias, Mittlerer Keuper, Stubensandstein",,Sandstein - Tonstein - Wechsellagen mit dolomitischen Einlagerungen,Sandsteinkeuper,,,,
11.88600590541667,49.813965706290617,StSch 4251 Oberpfalz 52,SzintillationszÃ¤,"Rn-222 (Radon), 1 m Tie",kBq m-3,13.0000000000,707614,5521943,596,"Trias, Mittlerer Keuper, Stubensandstein",,Sandstein - Tonstein - Wechsellagen mit dolomitischen Einlagerungen,Sandsteinkeuper,,,,forest
11.932030111875164,49.8152115746825,StSch 4251 Oberpfalz 53,SzintillationszÃ¤,"Rn-222 (Radon), 1 m Tie",kBq m-3,52.0000000000,710919,5522210,546,"Kreide, Oberkreide",limnisch - fluviatile Ablagerungen,"Sand, Ton; gelegentlich Konglomerat",epikontinentale Fazies,,,,forest
11.982024492336967,49.805460351521688,StSch 4251 Oberpfalz 54,SzintillationszÃ¤,"Rn-222 (Radon), 1 m Tie",kBq m-3,39.0000000000,714558,5521268,546,"Kreide, Oberkreide",limnisch - fluviatile Ablagerungen,"Sand, Ton; gelegentlich Konglomerat",epikontinentale Fazies,,,,
11.982096318834081,49.828102372588816,StSch 4251 Oberpfalz 55,SzintillationszÃ¤,"Rn-222 (Radon), 1 m Tie",kBq m-3,87.0000000000,714463,5523785,546,"Kreide, Oberkreide",limnisch - fluviatile Ablagerungen,"Sand, Ton; gelegentlich Konglomerat",epikontinentale Fazies,,,,
11.932576880824547,49.835052555141871,StSch 4251 Oberpfalz 56,SzintillationszÃ¤,"Rn-222 (Radon), 1 m Tie",kBq m-3,10.0000000000,710872,5524417,596,"Trias, Mittlerer Keuper, Stubensandstein",,Sandstein - Tonstein - Wechsellagen mit dolomitischen Einlagerungen,Sandsteinkeuper,,,,
11.907790674516555,49.818818513292833,StSch 4251 Oberpfalz 57,SzintillationszÃ¤,"Rn-222 (Radon), 1 m Tie",kBq m-3,10.0000000000,709160,5522543,595,"Trias, Mittlerer Keuper, Feuerletten, Knollenmergel",,Tonsteine mit dolomitischen und sandigen Einlagerungen,Feuerletten Knollenmergel,,,,forest
11.85043612817358,49.833954577814886,StSch 4251 Oberpfalz 58,SzintillationszÃ¤,"Rn-222 (Radon), 1 m Tie",kBq m-3,12.0000000000,704971,5524067,596,"Trias, Mittlerer Keuper, Stubensandstein",,Sandstein - Tonstein - Wechsellagen mit dolomitischen Einlagerungen,Sandsteinkeuper,,,,forest
11.85062817330166,49.869835516053854,StSch 4251 Oberpfalz 59,SzintillationszÃ¤,"Rn-222 (Radon), 1 m Tie",kBq m-3,53.0000000000,704833,5528056,597,"Trias, Mittlerer Keuper, Gipskeuper, Schilfsandstein",,Tonstein mit Lagen von Steinmergel und Gips,,,,,forest
11.907180069388053,49.858012497039311,StSch 4251 Oberpfalz 60,SzintillationszÃ¤,"Rn-222 (Radon), 1 m Tie",kBq m-3,15.0000000000,708947,5526898,596,"Trias, Mittlerer Keuper, Stubensandstein",,Sandstein - Tonstein - Wechsellagen mit dolomitischen Einlagerungen,Sandsteinkeuper,,,,
11.934012480463089,49.855770601249993,StSch 4251 Oberpfalz 61,SzintillationszÃ¤,"Rn-222 (Radon), 1 m Tie",kBq m-3,12.0000000000,710885,5526724,597,"Trias, Mittlerer Keuper, Gipskeuper, Schilfsandstein",,Tonstein mit Lagen von Steinmergel und Gips,,,farmland,,
11.972873857422842,49.859799648777027,StSch 4251 Oberpfalz 62,SzintillationszÃ¤,"Rn-222 (Radon), 1 m Tie",kBq m-3,71.0000000000,713660,5527282,590,"Trias, Keuper",,"Ton-, Sand-, Mergelstein",,,,,
11.966074811817787,49.883967050087357,StSch 4251 Oberpfalz 63,SzintillationszÃ¤,"Rn-222 (Radon), 1 m Tie",kBq m-3,56.0000000000,713065,5529949,715,"Ordovizium, Tieferes Ordovizium","marine Ablagerungen, metamorph",Phyllit,,,,,
11.937901700923362,49.882022046308016,StSch 4251 Oberpfalz 64,SzintillationszÃ¤,"Rn-222 (Radon), 1 m Tie",kBq m-3,11.0000000000,711050,5529653,590,"Trias, Keuper",,"Ton-, Sand-, Mergelstein",,,,,
11.912992562044289,49.882453133339617,StSch 4251 Oberpfalz 65,SzintillationszÃ¤,"Rn-222 (Radon), 1 m Tie",kBq m-3,101.0000000000,709259,5529631,590,"Trias, Keuper",,"Ton-, Sand-, Mergelstein",,,,,forest
11.862218584111671,49.888828456766333,StSch 4251 Oberpfalz 66,SzintillationszÃ¤,"Rn-222 (Radon), 1 m Tie",kBq m-3,13.0000000000,705585,5530199,608,"Trias, Buntsandstein ungegliedert",,"Sandstein, Schluffstein, Tonstein",,,,,
12.352993706957967,49.815230133861789,StSch 4251 Oberpfalz 67,SzintillationszÃ¤,"Rn-222 (Radon), 1 m Tie",kBq m-3,287.0000000000,741196,5523482,834,"z.T. Oberdevon, Karbon",plutonisch,Granit,variszischer Granit,,,,
12.401755685408585,49.808094490389152,StSch 4251 Oberpfalz 68,SzintillationszÃ¤,"Rn-222 (Radon), 1 m Tie",kBq m-3,95.0000000000,744739,5522847,761,Oberes Proterozoikum,metamorph,Paragneis,,,,,
12.448112285185484,49.810528724820657,StSch 4251 Oberpfalz 69,SzintillationszÃ¤,"Rn-222 (Radon), 1 m Tie",kBq m-3,26.0000000000,748061,5523270,761,Oberes Proterozoikum,metamorph,Paragneis,,,,,
12.463298675440186,49.840161605086585,StSch 4251 Oberpfalz 70,SzintillationszÃ¤,"Rn-222 (Radon), 1 m Tie",kBq m-3,73.0000000000,749001,5526614,834,"z.T. Oberdevon, Karbon",plutonisch,Granit,variszischer Granit,,,,forest
12.430492554028579,49.833643751103125,StSch 4251 Oberpfalz 71,SzintillationszÃ¤,"Rn-222 (Radon), 1 m Tie",kBq m-3,172.0000000000,746676,5525781,761,Oberes Proterozoikum,metamorph,Paragneis,,,,,forest
12.430284560569389,49.834045782485489,StSch 4251 Oberpfalz 72,SzintillationszÃ¤,"Rn-222 (Radon), 1 m Tie",kBq m-3,36.0000000000,746659,5525825,761,Oberes Proterozoikum,metamorph,Paragneis,,,,,forest
12.350582495405366,49.831035526199216,StSch 4251 Oberpfalz 73,SzintillationszÃ¤,"Rn-222 (Radon), 1 m Tie",kBq m-3,210.0000000000,740944,5525231,834,"z.T. Oberdevon, Karbon",plutonisch,Granit,variszischer Granit,,,,forest
12.409790983345269,49.864799988709017,StSch 4251 Oberpfalz 74,SzintillationszÃ¤,"Rn-222 (Radon), 1 m Tie",kBq m-3,219.0000000000,745030,5529176,838,Karbon,plutonisch,"Diorit, Redwitzit","Redwitzit = Granitvariante, hohe Biotit-, Hornblendegehalte (sdl. Prag auch Gabbro)",,,,forest
12.397987886955155,49.863410519732604,StSch 4251 Oberpfalz 75,SzintillationszÃ¤,"Rn-222 (Radon), 1 m Tie",kBq m-3,51.0000000000,744189,5528983,760,Oberes Proterozoikum,metamorph,Glimmerschiefer,z.T. auch glimmerreicher Gneis,,,,
12.442982102473747,49.856125458871595,StSch 4251 Oberpfalz 76,SzintillationszÃ¤,"Rn-222 (Radon), 1 m Tie",kBq m-3,56.0000000000,747459,5528321,761,Oberes Proterozoikum,metamorph,Paragneis,,,,,
12.481885194373499,49.86028843052987,StSch 4251 Oberpfalz 77,SzintillationszÃ¤,"Rn-222 (Radon), 1 m Tie",kBq m-3,35.0000000000,750233,5528913,761,Oberes Proterozoikum,metamorph,Paragneis,,,,,forest
12.495523106795808,49.894750210952743,StSch 4251 Oberpfalz 78,SzintillationszÃ¤,"Rn-222 (Radon), 1 m Tie",kBq m-3,43.0000000000,751034,5532789,760,Oberes Proterozoikum,metamorph,Glimmerschiefer,z.T. auch glimmerreicher Gneis,,farm,,
12.444188266477033,49.885779695572332,StSch 4251 Oberpfalz 79,SzintillationszÃ¤,"Rn-222 (Radon), 1 m Tie",kBq m-3,13.0000000000,747394,5531621,760,Oberes Proterozoikum,metamorph,Glimmerschiefer,z.T. auch glimmerreicher Gneis,,farmland,,
12.392269922500949,49.891630534857363,StSch 4251 Oberpfalz 80,SzintillationszÃ¤,"Rn-222 (Radon), 1 m Tie",kBq m-3,13.0000000000,743636,5532101,503,"Terti„r, Plioz„n, ungegliedert",,"Ton, Sand, Kies; Braunkohle",,,,,forest
12.347807308355083,49.891484730428004,StSch 4251 Oberpfalz 81,SzintillationszÃ¤,"Rn-222 (Radon), 1 m Tie",kBq m-3,60.0000000000,740444,5531941,760,Oberes Proterozoikum,metamorph,Glimmerschiefer,z.T. auch glimmerreicher Gneis,,residential,,
12.523172952416084,49.886777671695768,StSch 4251 Oberpfalz 82,SzintillationszÃ¤,"Rn-222 (Radon), 1 m Tie",kBq m-3,45.0000000000,753061,5531996,761,Oberes Proterozoikum,metamorph,Paragneis,,,,,forest
11.657052378168839,49.738957542194562,StSch 4251 Oberpfalz 83,SzintillationszÃ¤,"Rn-222 (Radon), 1 m Tie",kBq m-3,7.0000000000,691441,5512996,579,"Jura, Oberer Jura (Malm)","marine Ablagerungen, marin - brackisch","Mergelstein, Kalkstein, Dolomitstein, Kalksandstein",,,,,
11.64582493106654,49.771132542897213,StSch 4251 Oberpfalz 84,SzintillationszÃ¤,"Rn-222 (Radon), 1 m Tie",kBq m-3,12.0000000000,690506,5516544,583,"Jura, Mittlerer Jura (Dogger)",marine Ablagerungen,"Ton, Tonmergelstein, Kalksandstein, Mergelstein, oolithischer Kalkstein;Eisenerz-Fl”ze",,,,,forest
11.941994316387891,49.714703220460336,StSch 4251 Oberpfalz 85,SzintillationszÃ¤,"Rn-222 (Radon), 1 m Tie",kBq m-3,7.0000000000,712074,5511066,85,"Weichsel-(Wrm-)Kaltzeit; Niederterrasse",fluviatil,"Sand, Kies","z.T. mit Auenlehmdecke (/T,U,S/Lf); z.T. Niederungssande (Talsande) eingeschlossen",,,,
11.976675371300555,49.713483528261087,StSch 4251 Oberpfalz 86,SzintillationszÃ¤,"Rn-222 (Radon), 1 m Tie",kBq m-3,6.0000000000,714579,5511029,85,"Weichsel-(Wrm-)Kaltzeit; Niederterrasse",fluviatil,"Sand, Kies","z.T. mit Auenlehmdecke (/T,U,S/Lf); z.T. Niederungssande (Talsande) eingeschlossen",,,,
11.98791805001953,49.7266615551681,StSch 4251 Oberpfalz 87,SzintillationszÃ¤,"Rn-222 (Radon), 1 m Tie",kBq m-3,11.0000000000,715331,5512526,85,"Weichsel-(Wrm-)Kaltzeit; Niederterrasse",fluviatil,"Sand, Kies","z.T. mit Auenlehmdecke (/T,U,S/Lf); z.T. Niederungssande (Talsande) eingeschlossen",,,,
11.939479106204022,49.735764776692719,StSch 4251 Oberpfalz 88,SzintillationszÃ¤,"Rn-222 (Radon), 1 m Tie",kBq m-3,8.0000000000,711801,5513400,85,"Weichsel-(Wrm-)Kaltzeit; Niederterrasse",fluviatil,"Sand, Kies","z.T. mit Auenlehmdecke (/T,U,S/Lf); z.T. Niederungssande (Talsande) eingeschlossen",,,,
11.893495933367985,49.733711701022258,StSch 4251 Oberpfalz 89,SzintillationszÃ¤,"Rn-222 (Radon), 1 m Tie",kBq m-3,97.0000000000,708497,5513043,602,"Trias, Muschelkalk",marine Ablagerungen,"Kalkstein, Mergelstein, Dolomitstein, Tonstein",,,,,
11.844238172009041,49.743703918275166,StSch 4251 Oberpfalz 90,SzintillationszÃ¤,"Rn-222 (Radon), 1 m Tie",kBq m-3,96.0000000000,704906,5514018,602,"Trias, Muschelkalk",marine Ablagerungen,"Kalkstein, Mergelstein, Dolomitstein, Tonstein",,,,,
11.851861039400635,49.76076222882218,StSch 4251 Oberpfalz 91,SzintillationszÃ¤,"Rn-222 (Radon), 1 m Tie",kBq m-3,11.0000000000,705383,5515935,85,"Weichsel-(Wrm-)Kaltzeit; Niederterrasse",fluviatil,"Sand, Kies","z.T. mit Auenlehmdecke (/T,U,S/Lf); z.T. Niederungssande (Talsande) eingeschlossen",,,,forest
11.894702971219838,49.756316309132885,StSch 4251 Oberpfalz 92,SzintillationszÃ¤,"Rn-222 (Radon), 1 m Tie",kBq m-3,5.0000000000,708487,5515559,85,"Weichsel-(Wrm-)Kaltzeit; Niederterrasse",fluviatil,"Sand, Kies","z.T. mit Auenlehmdecke (/T,U,S/Lf); z.T. Niederungssande (Talsande) eingeschlossen",,,,
11.941477510123583,49.751817567803585,StSch 4251 Oberpfalz 93,SzintillationszÃ¤,"Rn-222 (Radon), 1 m Tie",kBq m-3,13.0000000000,711875,5515190,85,"Weichsel-(Wrm-)Kaltzeit; Niederterrasse",fluviatil,"Sand, Kies","z.T. mit Auenlehmdecke (/T,U,S/Lf); z.T. Niederungssande (Talsande) eingeschlossen",,,,
11.854324786264222,49.588322084396111,StSch 4106 Deutschland ErgÃ¤nzung 25,SzintillationszÃ¤,"Rn-222 (Radon), 1 m Tie",kBq m-3,25.0000000000,706289,5496774,545,"Kreide, Oberkreide ungegliedert",,"Kalk- und Mergelstein, Tonstein, Sandstein",Sandstein: bes. Elbe-B”hmen,,,,forest
11.700411527668605,49.629307534178778,StSch 4106 Deutschland ErgÃ¤nzung 25,SzintillationszÃ¤,"Rn-222 (Radon), 1 m Tie",kBq m-3,25.0000000000,695003,5500919,579,"Jura, Oberer Jura (Malm)","marine Ablagerungen, marin - brackisch","Mergelstein, Kalkstein, Dolomitstein, Kalksandstein",,,,,
11.613060499319765,49.776851328240681,StSch 4106 Deutschland ErgÃ¤nzung 26,SzintillationszÃ¤,"Rn-222 (Radon), 1 m Tie",kBq m-3,6.0000000000,688125,5517097,583,"Jura, Mittlerer Jura (Dogger)",marine Ablagerungen,"Ton, Tonmergelstein, Kalksandstein, Mergelstein, oolithischer Kalkstein;Eisenerz-Fl”ze",,,,,
11.637936543288093,50.018769891192655,StSch 4106 Deutschland ErgÃ¤nzung 26,SzintillationszÃ¤,"Rn-222 (Radon), 1 m Tie",kBq m-3,7.0000000000,688968,5544052,590,"Trias, Keuper",,"Ton-, Sand-, Mergelstein",,,farmland,,
11.673769539650163,49.458249814757487,StSch 4106 Deutschland ErgÃ¤nzung 31,SzintillationszÃ¤,"Rn-222 (Radon), 1 m Tie",kBq m-3,22.0000000000,693755,5481836,579,"Jura, Oberer Jura (Malm)","marine Ablagerungen, marin - brackisch","Mergelstein, Kalkstein, Dolomitstein, Kalksandstein",,NeuÃ¶d,industrial,,
12.196579195078728,49.496370515464051,StSch 4186 Bayerischer Wald 106,SzintillationszÃ¤,"Rn-222 (Radon), 1 m Tie",kBq m-3,23.0000000000,731455,5487549,761,Oberes Proterozoikum,metamorph,Paragneis,,,,,
12.1844170884702,49.482230078280196,StSch 4186 Bayerischer Wald 107,SzintillationszÃ¤,"Rn-222 (Radon), 1 m Tie",kBq m-3,57.0000000000,730641,5485940,761,Oberes Proterozoikum,metamorph,Paragneis,,,,,
12.496348122457476,49.454983286459843,StSch 4186 Bayerischer Wald 114,SzintillationszÃ¤,"Rn-222 (Radon), 1 m Tie",kBq m-3,57.0000000000,753370,5483914,762,Proterozoikum - Altpal„ozoikum ?,metamorphes Intrusivgestein,Orthogneis,,,,,forest
12.479838153680586,49.451828832691731,StSch 4186 Bayerischer Wald 115,SzintillationszÃ¤,"Rn-222 (Radon), 1 m Tie",kBq m-3,9.0000000000,752190,5483508,761,Oberes Proterozoikum,metamorph,Paragneis,,,,,
12.426038512313029,49.454156719996128,StSch 4186 Bayerischer Wald 116,SzintillationszÃ¤,"Rn-222 (Radon), 1 m Tie",kBq m-3,59.0000000000,748280,5483588,834,"z.T. Oberdevon, Karbon",plutonisch,Granit,variszischer Granit,,residential,,
12.407475210723174,49.458529631194629,StSch 4186 Bayerischer Wald 117,SzintillationszÃ¤,"Rn-222 (Radon), 1 m Tie",kBq m-3,102.0000000000,746913,5484013,834,"z.T. Oberdevon, Karbon",plutonisch,Granit,variszischer Granit,,,,
12.417339737667922,49.468774175331596,StSch 4186 Bayerischer Wald 118,SzintillationszÃ¤,"Rn-222 (Radon), 1 m Tie",kBq m-3,101.0000000000,747576,5485184,834,"z.T. Oberdevon, Karbon",plutonisch,Granit,variszischer Granit,,,,
12.477724833147697,49.583191617916313,StSch 4251 Oberpfalz 167,SzintillationszÃ¤,"Rn-222 (Radon), 1 m Tie",kBq m-3,15.0000000000,751362,5498101,761,Oberes Proterozoikum,metamorph,Paragneis,,,,,forest
12.479163849525182,49.558693507317578,StSch 4251 Oberpfalz 168,SzintillationszÃ¤,"Rn-222 (Radon), 1 m Tie",kBq m-3,103.0000000000,751592,5495383,845,Oberes Proterozoikum - Altpal„ozoikum,metamorphes Intrusivgestein,"Orthogneis: granitisch, granodioritisch","šberg„nge zu Migmatiten; Metamorphose pr„-? bis frh(?)-variszisch",,,,forest
12.449797887630657,49.568858912150475,StSch 4251 Oberpfalz 169,SzintillationszÃ¤,"Rn-222 (Radon), 1 m Tie",kBq m-3,15.0000000000,749417,5496415,761,Oberes Proterozoikum,metamorph,Paragneis,,,,,
12.392256050926008,49.567574722640664,StSch 4251 Oberpfalz 170,SzintillationszÃ¤,"Rn-222 (Radon), 1 m Tie",kBq m-3,49.0000000000,745264,5496083,761,Oberes Proterozoikum,metamorph,Paragneis,,,,,
12.358880910096559,49.551940472696458,StSch 4251 Oberpfalz 171,SzintillationszÃ¤,"Rn-222 (Radon), 1 m Tie",kBq m-3,99.0000000000,742929,5494237,761,Oberes Proterozoikum,metamorph,Paragneis,,,,,forest
12.359444897989437,49.537393600007142,StSch 4251 Oberpfalz 172,SzintillationszÃ¤,"Rn-222 (Radon), 1 m Tie",kBq m-3,38.0000000000,743042,5492622,834,"z.T. Oberdevon, Karbon",plutonisch,Granit,variszischer Granit,,,,forest
12.430627271258789,49.542086651788992,StSch 4251 Oberpfalz 173,SzintillationszÃ¤,"Rn-222 (Radon), 1 m Tie",kBq m-3,24.0000000000,748167,5493376,761,Oberes Proterozoikum,metamorph,Paragneis,,,,,forest
12.515930843510532,49.542960129151467,StSch 4251 Oberpfalz 174,SzintillationszÃ¤,"Rn-222 (Radon), 1 m Tie",kBq m-3,75.0000000000,754332,5493758,761,Oberes Proterozoikum,metamorph,Paragneis,,,,,forest
12.567946113305286,49.544452147775651,StSch 4251 Oberpfalz 175,SzintillationszÃ¤,"Rn-222 (Radon), 1 m Tie",kBq m-3,32.0000000000,758086,5494101,761,Oberes Proterozoikum,metamorph,Paragneis,,,,,
12.556826758469692,49.558309129318232,StSch 4251 Oberpfalz 176,SzintillationszÃ¤,"Rn-222 (Radon), 1 m Tie",kBq m-3,104.0000000000,757209,5495603,761,Oberes Proterozoikum,metamorph,Paragneis,,,,,
12.530028466649119,49.559553574442141,StSch 4251 Oberpfalz 177,SzintillationszÃ¤,"Rn-222 (Radon), 1 m Tie",kBq m-3,47.0000000000,755265,5495650,761,Oberes Proterozoikum,metamorph,Paragneis,,,,,forest
12.531013347437549,49.597132737957409,StSch 4251 Oberpfalz 178,SzintillationszÃ¤,"Rn-222 (Radon), 1 m Tie",kBq m-3,132.0000000000,755140,5499830,761,Oberes Proterozoikum,metamorph,Paragneis,,,,,
12.561498871075987,49.583907052352131,StSch 4251 Oberpfalz 179,SzintillationszÃ¤,"Rn-222 (Radon), 1 m Tie",kBq m-3,16.0000000000,757412,5498464,761,Oberes Proterozoikum,metamorph,Paragneis,,,,,forest
11.842085528637641,49.907568145114041,StSch 4251 Oberpfalz 180,SzintillationszÃ¤,"Rn-222 (Radon), 1 m Tie",kBq m-3,8.0000000000,704060,5532227,608,"Trias, Buntsandstein ungegliedert",,"Sandstein, Schluffstein, Tonstein",,,,,
11.883095663535521,49.91155685203443,StSch 4251 Oberpfalz 181,SzintillationszÃ¤,"Rn-222 (Radon), 1 m Tie",kBq m-3,14.0000000000,706987,5532783,608,"Trias, Buntsandstein ungegliedert",,"Sandstein, Schluffstein, Tonstein",,,,,
11.933764416656549,49.912965914627826,StSch 4251 Oberpfalz 182,SzintillationszÃ¤,"Rn-222 (Radon), 1 m Tie",kBq m-3,248.0000000000,710618,5533081,721,Kambrium ungegliedert,metamorph,Glimmerschiefer,,,,,
11.980228822426245,49.912337910204691,StSch 4251 Oberpfalz 183,SzintillationszÃ¤,"Rn-222 (Radon), 1 m Tie",kBq m-3,65.0000000000,713956,5533143,721,Kambrium ungegliedert,metamorph,Glimmerschiefer,,,,,
12.529503763595487,49.559182708130315,StSch 4251 Oberpfalz 184,SzintillationszÃ¤,"Rn-222 (Radon), 1 m Tie",kBq m-3,94.0000000000,755229,5495607,761,Oberes Proterozoikum,metamorph,Paragneis,,,,,forest
11.899908186760085,49.929858283286293,StSch 4251 Oberpfalz 185,SzintillationszÃ¤,"Rn-222 (Radon), 1 m Tie",kBq m-3,83.0000000000,708115,5534864,715,"Ordovizium, Tieferes Ordovizium","marine Ablagerungen, metamorph",Phyllit,,,,,
11.89196824662095,49.939925434722106,StSch 4251 Oberpfalz 186,SzintillationszÃ¤,"Rn-222 (Radon), 1 m Tie",kBq m-3,94.0000000000,707502,5535961,715,"Ordovizium, Tieferes Ordovizium","marine Ablagerungen, metamorph",Phyllit,,,,,forest
11.849458699419829,49.938585438065466,StSch 4251 Oberpfalz 187,SzintillationszÃ¤,"Rn-222 (Radon), 1 m Tie",kBq m-3,79.0000000000,704458,5535695,845,Oberes Proterozoikum - Altpal„ozoikum,metamorphes Intrusivgestein,"Orthogneis: granitisch, granodioritisch","šberg„nge zu Migmatiten; Metamorphose pr„-? bis frh(?)-variszisch",,,,
11.897508590302783,49.950483424767675,StSch 4251 Oberpfalz 188,SzintillationszÃ¤,"Rn-222 (Radon), 1 m Tie",kBq m-3,144.0000000000,707854,5537150,715,"Ordovizium, Tieferes Ordovizium","marine Ablagerungen, metamorph",Phyllit,,,,,
11.972663298352884,49.957144535705602,StSch 4251 Oberpfalz 189,SzintillationszÃ¤,"Rn-222 (Radon), 1 m Tie",kBq m-3,66.0000000000,713215,5538102,760,Oberes Proterozoikum,metamorph,Glimmerschiefer,z.T. auch glimmerreicher Gneis,,,,
12.174659819802324,49.905805967637072,StSch 4251 Oberpfalz 190,SzintillationszÃ¤,"Rn-222 (Radon), 1 m Tie",kBq m-3,60.0000000000,727943,5532991,760,Oberes Proterozoikum,metamorph,Glimmerschiefer,z.T. auch glimmerreicher Gneis,,,,
12.310657656445136,49.911688631174144,StSch 4251 Oberpfalz 191,SzintillationszÃ¤,"Rn-222 (Radon), 1 m Tie",kBq m-3,37.0000000000,737677,5534068,508,"Terti„r, Mioz„n",fluviatil - limnische Ablagerungen,"Kies, Sand, Ton",,,,,
12.330797847805917,49.925955969202242,StSch 4251 Oberpfalz 192,SzintillationszÃ¤,"Rn-222 (Radon), 1 m Tie",kBq m-3,62.0000000000,739052,5535718,503,"Terti„r, Plioz„n, ungegliedert",,"Ton, Sand, Kies; Braunkohle",,,,,
12.239224911705911,49.929281176586102,StSch 4251 Oberpfalz 193,SzintillationszÃ¤,"Rn-222 (Radon), 1 m Tie",kBq m-3,27.0000000000,732465,5535799,508,"Terti„r, Mioz„n",fluviatil - limnische Ablagerungen,"Kies, Sand, Ton",,,,,
12.186996851669869,49.960625007439361,StSch 4251 Oberpfalz 194,SzintillationszÃ¤,"Rn-222 (Radon), 1 m Tie",kBq m-3,298.0000000000,728569,5539122,834,"z.T. Oberdevon, Karbon",plutonisch,Granit,variszischer Granit,,,,
12.230980913227921,49.963941316570249,StSch 4251 Oberpfalz 195,SzintillationszÃ¤,"Rn-222 (Radon), 1 m Tie",kBq m-3,56.0000000000,731707,5539626,791,Terti„r,Effusivgestein: Lava,"Alkalibasalt, Basanit, Tephrit, Nephelinit, Tholeyitbasalt, Olivinbasalt, Andesit","auch einige Vorkommen mit Trachyt, Phonolith, Latit",,,,
12.26589210280868,49.96850462134762,StSch 4251 Oberpfalz 196,SzintillationszÃ¤,"Rn-222 (Radon), 1 m Tie",kBq m-3,48.0000000000,734188,5540242,508,"Terti„r, Mioz„n",fluviatil - limnische Ablagerungen,"Kies, Sand, Ton",,,,,
12.266285539788752,49.999216938980481,StSch 4251 Oberpfalz 197,SzintillationszÃ¤,"Rn-222 (Radon), 1 m Tie",kBq m-3,109.0000000000,734067,5543657,834,"z.T. Oberdevon, Karbon",plutonisch,Granit,variszischer Granit,,,,forest
12.18958066815698,49.587046351102309,StSch 4251 Oberpfalz 156,SzintillationszÃ¤,"Rn-222 (Radon), 1 m Tie",kBq m-3,29.0000000000,730521,5497606,761,Oberes Proterozoikum,metamorph,Paragneis,,,,,forest
12.232436105568549,49.583651973064782,StSch 4251 Oberpfalz 157,SzintillationszÃ¤,"Rn-222 (Radon), 1 m Tie",kBq m-3,79.0000000000,733634,5497361,761,Oberes Proterozoikum,metamorph,Paragneis,,,,,forest
12.263191271305288,49.581069627187112,StSch 4251 Oberpfalz 158,SzintillationszÃ¤,"Rn-222 (Radon), 1 m Tie",kBq m-3,87.0000000000,735869,5497170,762,Proterozoikum - Altpal„ozoikum ?,metamorphes Intrusivgestein,Orthogneis,,,,,
12.315129946590368,49.586078936711004,StSch 4251 Oberpfalz 159,SzintillationszÃ¤,"Rn-222 (Radon), 1 m Tie",kBq m-3,10.0000000000,739598,5497891,761,Oberes Proterozoikum,metamorph,Paragneis,,,,,
12.320152430645974,49.563451027490032,StSch 4251 Oberpfalz 160,SzintillationszÃ¤,"Rn-222 (Radon), 1 m Tie",kBq m-3,33.0000000000,740072,5495392,761,Oberes Proterozoikum,metamorph,Paragneis,,,,,forest
12.25860664846471,49.55837346239003,StSch 4251 Oberpfalz 161,SzintillationszÃ¤,"Rn-222 (Radon), 1 m Tie",kBq m-3,40.0000000000,735647,5494633,761,Oberes Proterozoikum,metamorph,Paragneis,,,,,
12.228840362796886,49.561475904321938,StSch 4251 Oberpfalz 162,SzintillationszÃ¤,"Rn-222 (Radon), 1 m Tie",kBq m-3,35.0000000000,733480,5494885,761,Oberes Proterozoikum,metamorph,Paragneis,,,,,
12.17553336375255,49.558058070935054,StSch 4251 Oberpfalz 163,SzintillationszÃ¤,"Rn-222 (Radon), 1 m Tie",kBq m-3,86.0000000000,729642,5494341,761,Oberes Proterozoikum,metamorph,Paragneis,,,,,forest
12.350926356737315,49.581978957917833,StSch 4251 Oberpfalz 164,SzintillationszÃ¤,"Rn-222 (Radon), 1 m Tie",kBq m-3,74.0000000000,742205,5497550,761,Oberes Proterozoikum,metamorph,Paragneis,,,,,
12.382222054719763,49.58170643407999,StSch 4251 Oberpfalz 165,SzintillationszÃ¤,"Rn-222 (Radon), 1 m Tie",kBq m-3,13.0000000000,744468,5497621,761,Oberes Proterozoikum,metamorph,Paragneis,,,,,
12.436993746269703,49.575835335533988,StSch 4251 Oberpfalz 166,SzintillationszÃ¤,"Rn-222 (Radon), 1 m Tie",kBq m-3,80.0000000000,748456,5497148,761,Oberes Proterozoikum,metamorph,Paragneis,,,,,forest
12.197213935147003,49.967909651584101,StSch 4251 Oberpfalz 198,SzintillationszÃ¤,"Rn-222 (Radon), 1 m Tie",kBq m-3,139.0000000000,729267,5539963,834,"z.T. Oberdevon, Karbon",plutonisch,Granit,variszischer Granit,,,,
12.272547184847788,49.994622987447102,StSch 4251 Oberpfalz 199,SzintillationszÃ¤,"Rn-222 (Radon), 1 m Tie",kBq m-3,57.0000000000,734538,5543166,845,Oberes Proterozoikum - Altpal„ozoikum,metamorphes Intrusivgestein,"Orthogneis: granitisch, granodioritisch","šberg„nge zu Migmatiten; Metamorphose pr„-? bis frh(?)-variszisch",,,,
12.190038266155566,49.809515495816648,StSch 4251 Oberpfalz 200,SzintillationszÃ¤,"Rn-222 (Radon), 1 m Tie",kBq m-3,174.0000000000,729503,5522335,834,"z.T. Oberdevon, Karbon",plutonisch,Granit,variszischer Granit,,,,forest
12.247382783005893,49.813634211298705,StSch 4251 Oberpfalz 201,SzintillationszÃ¤,"Rn-222 (Radon), 1 m Tie",kBq m-3,136.0000000000,733608,5522970,834,"z.T. Oberdevon, Karbon",plutonisch,Granit,variszischer Granit,,,,
12.281124748490148,49.811963134903486,StSch 4251 Oberpfalz 202,SzintillationszÃ¤,"Rn-222 (Radon), 1 m Tie",kBq m-3,86.0000000000,736043,5522890,834,"z.T. Oberdevon, Karbon",plutonisch,Granit,variszischer Granit,,,,forest
12.321707780803719,49.810742878155772,StSch 4251 Oberpfalz 203,SzintillationszÃ¤,"Rn-222 (Radon), 1 m Tie",kBq m-3,60.0000000000,738968,5522883,834,"z.T. Oberdevon, Karbon",plutonisch,Granit,variszischer Granit,,,,forest
12.311916105061867,49.826758894087924,StSch 4251 Oberpfalz 204,SzintillationszÃ¤,"Rn-222 (Radon), 1 m Tie",kBq m-3,49.0000000000,738185,5524632,834,"z.T. Oberdevon, Karbon",plutonisch,Granit,variszischer Granit,,,,
12.26752588075623,49.832563491948243,StSch 4251 Oberpfalz 205,SzintillationszÃ¤,"Rn-222 (Radon), 1 m Tie",kBq m-3,115.0000000000,734965,5525137,834,"z.T. Oberdevon, Karbon",plutonisch,Granit,variszischer Granit,,,,forest
12.232689064349207,49.829303855838774,StSch 4251 Oberpfalz 206,SzintillationszÃ¤,"Rn-222 (Radon), 1 m Tie",kBq m-3,256.0000000000,732476,5524666,834,"z.T. Oberdevon, Karbon",plutonisch,Granit,variszischer Granit,,,,
12.202121417783008,49.831016889756398,StSch 4251 Oberpfalz 207,SzintillationszÃ¤,"Rn-222 (Radon), 1 m Tie",kBq m-3,200.0000000000,730270,5524762,834,"z.T. Oberdevon, Karbon",plutonisch,Granit,variszischer Granit,,,,
12.186892332565375,49.860622097521635,StSch 4251 Oberpfalz 208,SzintillationszÃ¤,"Rn-222 (Radon), 1 m Tie",kBq m-3,42.0000000000,729035,5528006,834,"z.T. Oberdevon, Karbon",plutonisch,Granit,variszischer Granit,,,,
12.239011266991549,49.851888866701039,StSch 4251 Oberpfalz 209,SzintillationszÃ¤,"Rn-222 (Radon), 1 m Tie",kBq m-3,269.0000000000,732822,5527196,834,"z.T. Oberdevon, Karbon",plutonisch,Granit,variszischer Granit,,,,
12.252530769025411,49.859885890787318,StSch 4251 Oberpfalz 210,SzintillationszÃ¤,"Rn-222 (Radon), 1 m Tie",kBq m-3,155.0000000000,733755,5528127,834,"z.T. Oberdevon, Karbon",plutonisch,Granit,variszischer Granit,,,,
12.31343290328854,49.860930420624065,StSch 4251 Oberpfalz 211,SzintillationszÃ¤,"Rn-222 (Radon), 1 m Tie",kBq m-3,32.0000000000,738126,5528435,834,"z.T. Oberdevon, Karbon",plutonisch,Granit,variszischer Granit,,,,forest
12.320488117124393,49.898838779665013,StSch 4251 Oberpfalz 212,SzintillationszÃ¤,"Rn-222 (Radon), 1 m Tie",kBq m-3,61.0000000000,738446,5532671,508,"Terti„r, Mioz„n",fluviatil - limnische Ablagerungen,"Kies, Sand, Ton",,,,,
12.193959600684593,49.88061581877075,StSch 4251 Oberpfalz 213,SzintillationszÃ¤,"Rn-222 (Radon), 1 m Tie",kBq m-3,5.0000000000,729448,5530250,508,"Terti„r, Mioz„n",fluviatil - limnische Ablagerungen,"Kies, Sand, Ton",,,,,
12.304268325516491,49.844926055529221,StSch 4251 Oberpfalz 214,SzintillationszÃ¤,"Rn-222 (Radon), 1 m Tie",kBq m-3,55.0000000000,737546,5526627,834,"z.T. Oberdevon, Karbon",plutonisch,Granit,variszischer Granit,,,,forest
12.013814989991991,49.817313231332903,StSch 4251 Oberpfalz 215,SzintillationszÃ¤,"Rn-222 (Radon), 1 m Tie",kBq m-3,82.0000000000,716792,5522677,546,"Kreide, Oberkreide",limnisch - fluviatile Ablagerungen,"Sand, Ton; gelegentlich Konglomerat",epikontinentale Fazies,,,,
12.057431556623238,49.809368476077736,StSch 4251 Oberpfalz 216,SzintillationszÃ¤,"Rn-222 (Radon), 1 m Tie",kBq m-3,15.0000000000,719965,5521921,760,Oberes Proterozoikum,metamorph,Glimmerschiefer,z.T. auch glimmerreicher Gneis,,,,
12.087174768322239,49.821489285153838,StSch 4251 Oberpfalz 217,SzintillationszÃ¤,"Rn-222 (Radon), 1 m Tie",kBq m-3,30.0000000000,722049,5523356,760,Oberes Proterozoikum,metamorph,Glimmerschiefer,z.T. auch glimmerreicher Gneis,,,,
12.144981768960946,49.818521194428058,StSch 4251 Oberpfalz 218,SzintillationszÃ¤,"Rn-222 (Radon), 1 m Tie",kBq m-3,57.0000000000,726220,5523199,834,"z.T. Oberdevon, Karbon",plutonisch,Granit,variszischer Granit,,,,
12.155054360276281,49.834414074257197,StSch 4251 Oberpfalz 219,SzintillationszÃ¤,"Rn-222 (Radon), 1 m Tie",kBq m-3,139.0000000000,726870,5524996,834,"z.T. Oberdevon, Karbon",plutonisch,Granit,variszischer Granit,,,,
12.090019454477888,49.83840781514715,StSch 4251 Oberpfalz 220,SzintillationszÃ¤,"Rn-222 (Radon), 1 m Tie",kBq m-3,52.0000000000,722176,5525245,858,Oberes Proterozoikum,berwiegend metamorph,,Typische Gesteine: Amphibolite,,,,
12.071086571143427,49.844534229978514,StSch 4251 Oberpfalz 221,SzintillationszÃ¤,"Rn-222 (Radon), 1 m Tie",kBq m-3,42.0000000000,720787,5525870,858,Oberes Proterozoikum,berwiegend metamorph,,Typische Gesteine: Amphibolite,,,,forest
12.020560880572662,49.83966448128654,StSch 4251 Oberpfalz 222,SzintillationszÃ¤,"Rn-222 (Radon), 1 m Tie",kBq m-3,69.0000000000,717177,5525181,660,"Perm, Unterrotliegend",,"Schieferton, Sandstein, Konglomerat, Kohle, Porphyrbreccie, Tuff",,,,,
12.021010081844857,49.875854199545088,StSch 4251 Oberpfalz 223,SzintillationszÃ¤,"Rn-222 (Radon), 1 m Tie",kBq m-3,318.0000000000,717047,5529205,834,"z.T. Oberdevon, Karbon",plutonisch,Granit,variszischer Granit,,,,
12.06906044299253,49.861735180233694,StSch 4251 Oberpfalz 224,SzintillationszÃ¤,"Rn-222 (Radon), 1 m Tie",kBq m-3,120.0000000000,720563,5527776,834,"z.T. Oberdevon, Karbon",plutonisch,Granit,variszischer Granit,,residential,,
12.088713610101975,49.848905570813905,StSch 4251 Oberpfalz 225,SzintillationszÃ¤,"Rn-222 (Radon), 1 m Tie",kBq m-3,44.0000000000,722034,5526408,838,Karbon,plutonisch,"Diorit, Redwitzit","Redwitzit = Granitvariante, hohe Biotit-, Hornblendegehalte (sdl. Prag auch Gabbro)",,,,
12.159416166542966,49.861194954515639,StSch 4251 Oberpfalz 226,SzintillationszÃ¤,"Rn-222 (Radon), 1 m Tie",kBq m-3,110.0000000000,727058,5527986,834,"z.T. Oberdevon, Karbon",plutonisch,Granit,variszischer Granit,,,,
12.133006820467338,49.887066630987988,StSch 4251 Oberpfalz 227,SzintillationszÃ¤,"Rn-222 (Radon), 1 m Tie",kBq m-3,29.0000000000,725040,5530782,834,"z.T. Oberdevon, Karbon",plutonisch,Granit,variszischer Granit,,,,
12.11582171903938,49.884867185820021,StSch 4251 Oberpfalz 228,SzintillationszÃ¤,"Rn-222 (Radon), 1 m Tie",kBq m-3,153.0000000000,723816,5530486,834,"z.T. Oberdevon, Karbon",plutonisch,Granit,variszischer Granit,,,,
12.056472313094835,49.884756998249166,StSch 4251 Oberpfalz 229,SzintillationszÃ¤,"Rn-222 (Radon), 1 m Tie",kBq m-3,474.0000000000,719554,5530298,834,"z.T. Oberdevon, Karbon",plutonisch,Granit,variszischer Granit,,,,
12.017956320817881,49.89830770429446,StSch 4251 Oberpfalz 230,SzintillationszÃ¤,"Rn-222 (Radon), 1 m Tie",kBq m-3,252.0000000000,716727,5531692,834,"z.T. Oberdevon, Karbon",plutonisch,Granit,variszischer Granit,,,,
12.101019482170893,49.870078342679193,StSch 4251 Oberpfalz 231,SzintillationszÃ¤,"Rn-222 (Radon), 1 m Tie",kBq m-3,532.0000000000,722821,5528798,834,"z.T. Oberdevon, Karbon",plutonisch,Granit,variszischer Granit,,,,forest
11.71253407290089,49.801129168363147,StSch 4251 Oberpfalz 232,SzintillationszÃ¤,"Rn-222 (Radon), 1 m Tie",kBq m-3,25.0000000000,695188,5520050,597,"Trias, Mittlerer Keuper, Gipskeuper, Schilfsandstein",,Tonstein mit Lagen von Steinmergel und Gips,,,,,
11.761146806705023,49.808850451920989,StSch 4251 Oberpfalz 233,SzintillationszÃ¤,"Rn-222 (Radon), 1 m Tie",kBq m-3,38.0000000000,698654,5521036,596,"Trias, Mittlerer Keuper, Stubensandstein",,Sandstein - Tonstein - Wechsellagen mit dolomitischen Einlagerungen,Sandsteinkeuper,,,,
11.809601735572118,49.814773995056811,StSch 4251 Oberpfalz 234,SzintillationszÃ¤,"Rn-222 (Radon), 1 m Tie",kBq m-3,32.0000000000,702115,5521824,597,"Trias, Mittlerer Keuper, Gipskeuper, Schilfsandstein",,Tonstein mit Lagen von Steinmergel und Gips,,,,,
11.809424589093789,49.829711879784604,StSch 4251 Oberpfalz 235,SzintillationszÃ¤,"Rn-222 (Radon), 1 m Tie",kBq m-3,86.0000000000,702040,5523484,597,"Trias, Mittlerer Keuper, Gipskeuper, Schilfsandstein",,Tonstein mit Lagen von Steinmergel und Gips,,,,,
11.768226203908606,49.829615343901295,StSch 4251 Oberpfalz 236,SzintillationszÃ¤,"Rn-222 (Radon), 1 m Tie",kBq m-3,9.0000000000,699078,5523363,597,"Trias, Mittlerer Keuper, Gipskeuper, Schilfsandstein",,Tonstein mit Lagen von Steinmergel und Gips,,,,,
11.800665302476984,49.848518967919553,StSch 4251 Oberpfalz 237,SzintillationszÃ¤,"Rn-222 (Radon), 1 m Tie",kBq m-3,17.0000000000,701332,5525551,596,"Trias, Mittlerer Keuper, Stubensandstein",,Sandstein - Tonstein - Wechsellagen mit dolomitischen Einlagerungen,Sandsteinkeuper,,,,
11.842240821105355,49.90736642235639,StSch 4251 Oberpfalz 238,SzintillationszÃ¤,"Rn-222 (Radon), 1 m Tie",kBq m-3,10.0000000000,704072,5532205,608,"Trias, Buntsandstein ungegliedert",,"Sandstein, Schluffstein, Tonstein",,,,,
11.806409762756532,49.875620083088791,StSch 4251 Oberpfalz 239,SzintillationszÃ¤,"Rn-222 (Radon), 1 m Tie",kBq m-3,5.0000000000,701632,5528579,597,"Trias, Mittlerer Keuper, Gipskeuper, Schilfsandstein",,Tonstein mit Lagen von Steinmergel und Gips,,,,,
11.698726450079123,49.756777375662544,StSch 4251 Oberpfalz 240,SzintillationszÃ¤,"Rn-222 (Radon), 1 m Tie",kBq m-3,62.0000000000,694372,5515084,583,"Jura, Mittlerer Jura (Dogger)",marine Ablagerungen,"Ton, Tonmergelstein, Kalksandstein, Mergelstein, oolithischer Kalkstein;Eisenerz-Fl”ze",,,,,
11.72953449366071,49.736659497377524,StSch 4251 Oberpfalz 241,SzintillationszÃ¤,"Rn-222 (Radon), 1 m Tie",kBq m-3,42.0000000000,696672,5512928,545,"Kreide, Oberkreide ungegliedert",,"Kalk- und Mergelstein, Tonstein, Sandstein",Sandstein: bes. Elbe-B”hmen,,,,
11.697712480847684,49.7422633345777,StSch 4251 Oberpfalz 242,SzintillationszÃ¤,"Rn-222 (Radon), 1 m Tie",kBq m-3,23.0000000000,694357,5513468,545,"Kreide, Oberkreide ungegliedert",,"Kalk- und Mergelstein, Tonstein, Sandstein",Sandstein: bes. Elbe-B”hmen,,,,forest
11.759411705758001,49.740935043307324,StSch 4251 Oberpfalz 243,SzintillationszÃ¤,"Rn-222 (Radon), 1 m Tie",kBq m-3,29.0000000000,698807,5513482,590,"Trias, Keuper",,"Ton-, Sand-, Mergelstein",,,,,forest
11.820795166181028,49.738519943342872,StSch 4251 Oberpfalz 244,SzintillationszÃ¤,"Rn-222 (Radon), 1 m Tie",kBq m-3,18.0000000000,703239,5513378,608,"Trias, Buntsandstein ungegliedert",,"Sandstein, Schluffstein, Tonstein",,,,,
11.760361861254474,49.76695626270557,StSch 4251 Oberpfalz 245,SzintillationszÃ¤,"Rn-222 (Radon), 1 m Tie",kBq m-3,48.0000000000,698769,5516377,597,"Trias, Mittlerer Keuper, Gipskeuper, Schilfsandstein",,Tonstein mit Lagen von Steinmergel und Gips,,,,,
11.683809428544723,49.738610211796775,StSch 4251 Oberpfalz 246,SzintillationszÃ¤,"Rn-222 (Radon), 1 m Tie",kBq m-3,47.0000000000,693370,5513026,545,"Kreide, Oberkreide ungegliedert",,"Kalk- und Mergelstein, Tonstein, Sandstein",Sandstein: bes. Elbe-B”hmen,,,,
11.668199166993194,49.767038707849494,StSch 4251 Oberpfalz 247,SzintillationszÃ¤,"Rn-222 (Radon), 1 m Tie",kBq m-3,23.0000000000,692133,5516146,583,"Jura, Mittlerer Jura (Dogger)",marine Ablagerungen,"Ton, Tonmergelstein, Kalksandstein, Mergelstein, oolithischer Kalkstein;Eisenerz-Fl”ze",,,,,
11.768963640898818,49.765572369101179,StSch 4251 Oberpfalz 248,SzintillationszÃ¤,"Rn-222 (Radon), 1 m Tie",kBq m-3,5.0000000000,699394,5516246,597,"Trias, Mittlerer Keuper, Gipskeuper, Schilfsandstein",,Tonstein mit Lagen von Steinmergel und Gips,,,,,
11.785946851383857,49.753658835943021,StSch 4251 Oberpfalz 249,SzintillationszÃ¤,"Rn-222 (Radon), 1 m Tie",kBq m-3,5.0000000000,700666,5514967,602,"Trias, Muschelkalk",marine Ablagerungen,"Kalkstein, Mergelstein, Dolomitstein, Tonstein",,,,,
11.799563423547728,49.767310448729241,StSch 4251 Oberpfalz 250,SzintillationszÃ¤,"Rn-222 (Radon), 1 m Tie",kBq m-3,25.0000000000,701590,5516521,602,"Trias, Muschelkalk",marine Ablagerungen,"Kalkstein, Mergelstein, Dolomitstein, Tonstein",,,,,
11.822667921858585,49.798488060571152,StSch 4251 Oberpfalz 251,SzintillationszÃ¤,"Rn-222 (Radon), 1 m Tie",kBq m-3,5.0000000000,703123,5520049,597,"Trias, Mittlerer Keuper, Gipskeuper, Schilfsandstein",,Tonstein mit Lagen von Steinmergel und Gips,,,,,
11.733401063654233,49.79060790154108,StSch 4251 Oberpfalz 252,SzintillationszÃ¤,"Rn-222 (Radon), 1 m Tie",kBq m-3,17.0000000000,696732,5518935,597,"Trias, Mittlerer Keuper, Gipskeuper, Schilfsandstein",,Tonstein mit Lagen von Steinmergel und Gips,,,,,
11.680746200430097,49.776446619121444,StSch 4251 Oberpfalz 253,SzintillationszÃ¤,"Rn-222 (Radon), 1 m Tie",kBq m-3,25.0000000000,692999,5517224,583,"Jura, Mittlerer Jura (Dogger)",marine Ablagerungen,"Ton, Tonmergelstein, Kalksandstein, Mergelstein, oolithischer Kalkstein;Eisenerz-Fl”ze",,,,,forest
11.830346695498235,49.770250450848863,StSch 4251 Oberpfalz 254,SzintillationszÃ¤,"Rn-222 (Radon), 1 m Tie",kBq m-3,10.0000000000,703794,5516931,602,"Trias, Muschelkalk",marine Ablagerungen,"Kalkstein, Mergelstein, Dolomitstein, Tonstein",,,,,forest
12.018801736608648,49.713103037099764,StSch 4251 Oberpfalz 255,SzintillationszÃ¤,"Rn-222 (Radon), 1 m Tie",kBq m-3,7.0000000000,717617,5511108,597,"Trias, Mittlerer Keuper, Gipskeuper, Schilfsandstein",,Tonstein mit Lagen von Steinmergel und Gips,,,,SchieÃŸlweiher,water
12.065345868088176,49.71898683153033,StSch 4251 Oberpfalz 256,SzintillationszÃ¤,"Rn-222 (Radon), 1 m Tie",kBq m-3,12.0000000000,720945,5511898,596,"Trias, Mittlerer Keuper, Stubensandstein",,Sandstein - Tonstein - Wechsellagen mit dolomitischen Einlagerungen,Sandsteinkeuper,,,,
12.097430101115521,49.713148390625101,StSch 4251 Oberpfalz 257,SzintillationszÃ¤,"Rn-222 (Radon), 1 m Tie",kBq m-3,5.0000000000,723284,5511344,597,"Trias, Mittlerer Keuper, Gipskeuper, Schilfsandstein",,Tonstein mit Lagen von Steinmergel und Gips,,,,,
12.151364114217252,49.714283222639281,StSch 4251 Oberpfalz 258,SzintillationszÃ¤,"Rn-222 (Radon), 1 m Tie",kBq m-3,10.0000000000,727166,5511632,85,"Weichsel-(Wrm-)Kaltzeit; Niederterrasse",fluviatil,"Sand, Kies","z.T. mit Auenlehmdecke (/T,U,S/Lf); z.T. Niederungssande (Talsande) eingeschlossen",,,,forest
12.151353957812296,49.741111684952642,StSch 4251 Oberpfalz 259,SzintillationszÃ¤,"Rn-222 (Radon), 1 m Tie",kBq m-3,53.0000000000,727040,5514614,760,Oberes Proterozoikum,metamorph,Glimmerschiefer,z.T. auch glimmerreicher Gneis,,,,water
12.104363458397607,49.739178822087354,StSch 4251 Oberpfalz 260,SzintillationszÃ¤,"Rn-222 (Radon), 1 m Tie",kBq m-3,17.0000000000,723664,5514258,546,"Kreide, Oberkreide",limnisch - fluviatile Ablagerungen,"Sand, Ton; gelegentlich Konglomerat",epikontinentale Fazies,,,,forest
12.048929060361164,49.743090462716545,StSch 4251 Oberpfalz 261,SzintillationszÃ¤,"Rn-222 (Radon), 1 m Tie",kBq m-3,31.0000000000,719653,5514529,546,"Kreide, Oberkreide",limnisch - fluviatile Ablagerungen,"Sand, Ton; gelegentlich Konglomerat",epikontinentale Fazies,,,,
12.023693214662275,49.734881898721859,StSch 4251 Oberpfalz 262,SzintillationszÃ¤,"Rn-222 (Radon), 1 m Tie",kBq m-3,29.0000000000,717872,5513543,597,"Trias, Mittlerer Keuper, Gipskeuper, Schilfsandstein",,Tonstein mit Lagen von Steinmergel und Gips,,,,,forest
12.006544764135969,49.768669579217971,StSch 4251 Oberpfalz 263,SzintillationszÃ¤,"Rn-222 (Radon), 1 m Tie",kBq m-3,24.0000000000,716486,5517249,546,"Kreide, Oberkreide",limnisch - fluviatile Ablagerungen,"Sand, Ton; gelegentlich Konglomerat",epikontinentale Fazies,,,,
12.049281428931256,49.765743454378843,StSch 4251 Oberpfalz 264,SzintillationszÃ¤,"Rn-222 (Radon), 1 m Tie",kBq m-3,22.0000000000,719576,5517048,546,"Kreide, Oberkreide",limnisch - fluviatile Ablagerungen,"Sand, Ton; gelegentlich Konglomerat",epikontinentale Fazies,,,,
12.101343942118399,49.759951985482253,StSch 4251 Oberpfalz 265,SzintillationszÃ¤,"Rn-222 (Radon), 1 m Tie",kBq m-3,11.0000000000,723351,5516558,546,"Kreide, Oberkreide",limnisch - fluviatile Ablagerungen,"Sand, Ton; gelegentlich Konglomerat",epikontinentale Fazies,,,,
12.150201323668792,49.764021621460145,StSch 4251 Oberpfalz 266,SzintillationszÃ¤,"Rn-222 (Radon), 1 m Tie",kBq m-3,10.0000000000,726850,5517157,760,Oberes Proterozoikum,metamorph,Glimmerschiefer,z.T. auch glimmerreicher Gneis,,,,forest
12.156285587008234,49.788821616015461,StSch 4251 Oberpfalz 267,SzintillationszÃ¤,"Rn-222 (Radon), 1 m Tie",kBq m-3,22.0000000000,727172,5519932,858,Oberes Proterozoikum,berwiegend metamorph,,Typische Gesteine: Amphibolite,,,,
12.107927210477344,49.795114028203407,StSch 4251 Oberpfalz 268,SzintillationszÃ¤,"Rn-222 (Radon), 1 m Tie",kBq m-3,26.0000000000,723663,5520486,760,Oberes Proterozoikum,metamorph,Glimmerschiefer,z.T. auch glimmerreicher Gneis,,,,forest
12.070149809572076,49.794844450818168,StSch 4251 Oberpfalz 269,SzintillationszÃ¤,"Rn-222 (Radon), 1 m Tie",kBq m-3,38.0000000000,720946,5520344,760,Oberes Proterozoikum,metamorph,Glimmerschiefer,z.T. auch glimmerreicher Gneis,,,,
12.01874559253752,49.795341455218221,StSch 4251 Oberpfalz 270,SzintillationszÃ¤,"Rn-222 (Radon), 1 m Tie",kBq m-3,37.0000000000,717245,5520249,546,"Kreide, Oberkreide",limnisch - fluviatile Ablagerungen,"Sand, Ton; gelegentlich Konglomerat",epikontinentale Fazies,,,,
12.082269349103514,49.736422589794806,StSch 4251 Oberpfalz 271,SzintillationszÃ¤,"Rn-222 (Radon), 1 m Tie",kBq m-3,20.0000000000,722085,5513886,791,Terti„r,Effusivgestein: Lava,"Alkalibasalt, Basanit, Tephrit, Nephelinit, Tholeyitbasalt, Olivinbasalt, Andesit","auch einige Vorkommen mit Trachyt, Phonolith, Latit",,residential,,
12.003747740636816,49.753987983423684,StSch 4251 Oberpfalz 272,SzintillationszÃ¤,"Rn-222 (Radon), 1 m Tie",kBq m-3,5.0000000000,716350,5515609,596,"Trias, Mittlerer Keuper, Stubensandstein",,Sandstein - Tonstein - Wechsellagen mit dolomitischen Einlagerungen,Sandsteinkeuper,,,,
12.186179784392408,49.608534739460367,StSch 4251 Oberpfalz 273,SzintillationszÃ¤,"Rn-222 (Radon), 1 m Tie",kBq m-3,55.0000000000,730174,5499984,659,"Perm, Oberrotliegend","fluviatil, fanglomeratisch","Sandstein, Tonstein",Fanglomerat,,,,
12.272415160058301,49.611776679647797,StSch 4251 Oberpfalz 274,SzintillationszÃ¤,"Rn-222 (Radon), 1 m Tie",kBq m-3,124.0000000000,736387,5500612,834,"z.T. Oberdevon, Karbon",plutonisch,Granit,variszischer Granit,,,,
12.30254314174978,49.610128423110169,StSch 4251 Oberpfalz 275,SzintillationszÃ¤,"Rn-222 (Radon), 1 m Tie",kBq m-3,24.0000000000,738571,5500524,834,"z.T. Oberdevon, Karbon",plutonisch,Granit,variszischer Granit,,,,
12.329454587233894,49.644373304213275,StSch 4251 Oberpfalz 276,SzintillationszÃ¤,"Rn-222 (Radon), 1 m Tie",kBq m-3,37.0000000000,740346,5504416,761,Oberes Proterozoikum,metamorph,Paragneis,,,,,
12.279856444133305,49.628354280048882,StSch 4251 Oberpfalz 277,SzintillationszÃ¤,"Rn-222 (Radon), 1 m Tie",kBq m-3,90.0000000000,736844,5502478,834,"z.T. Oberdevon, Karbon",plutonisch,Granit,variszischer Granit,,,,
12.212674176899464,49.631400629868288,StSch 4251 Oberpfalz 278,SzintillationszÃ¤,"Rn-222 (Radon), 1 m Tie",kBq m-3,66.0000000000,731979,5502607,660,"Perm, Unterrotliegend",,"Schieferton, Sandstein, Konglomerat, Kohle, Porphyrbreccie, Tuff",,,,,forest
12.188912668197553,49.630240856754853,StSch 4251 Oberpfalz 279,SzintillationszÃ¤,"Rn-222 (Radon), 1 m Tie",kBq m-3,26.0000000000,730269,5502405,659,"Perm, Oberrotliegend","fluviatil, fanglomeratisch","Sandstein, Tonstein",Fanglomerat,,,,forest
12.189782250373908,49.662182692023237,StSch 4251 Oberpfalz 280,SzintillationszÃ¤,"Rn-222 (Radon), 1 m Tie",kBq m-3,23.0000000000,730181,5505958,659,"Perm, Oberrotliegend","fluviatil, fanglomeratisch","Sandstein, Tonstein",Fanglomerat,,,,
12.229772827870212,49.659318648564337,StSch 4251 Oberpfalz 281,SzintillationszÃ¤,"Rn-222 (Radon), 1 m Tie",kBq m-3,21.0000000000,733080,5505763,760,Oberes Proterozoikum,metamorph,Glimmerschiefer,z.T. auch glimmerreicher Gneis,,,,
12.27217558735879,49.663552076673326,StSch 4251 Oberpfalz 282,SzintillationszÃ¤,"Rn-222 (Radon), 1 m Tie",kBq m-3,29.0000000000,736119,5506366,834,"z.T. Oberdevon, Karbon",plutonisch,Granit,variszischer Granit,,,,
12.313950110418483,49.658638028894252,StSch 4251 Oberpfalz 283,SzintillationszÃ¤,"Rn-222 (Radon), 1 m Tie",kBq m-3,50.0000000000,739157,5505952,761,Oberes Proterozoikum,metamorph,Paragneis,,,,,
12.318503383463195,49.699245917800937,StSch 4251 Oberpfalz 284,SzintillationszÃ¤,"Rn-222 (Radon), 1 m Tie",kBq m-3,43.0000000000,739286,5510480,858,Oberes Proterozoikum,berwiegend metamorph,,Typische Gesteine: Amphibolite,,,,forest
12.264011550566192,49.690656548563055,StSch 4251 Oberpfalz 285,SzintillationszÃ¤,"Rn-222 (Radon), 1 m Tie",kBq m-3,157.0000000000,735399,5509353,834,"z.T. Oberdevon, Karbon",plutonisch,Granit,variszischer Granit,,,,
12.219083384675821,49.696395778741085,StSch 4251 Oberpfalz 286,SzintillationszÃ¤,"Rn-222 (Radon), 1 m Tie",kBq m-3,13.0000000000,732132,5509851,842,Karbon bis Rotliegend,Gesteinsgang,mikrogranitoides Ganggestein,hierher auch sehr untergeordnet basische Ganggesteine,,,,
12.204059806893811,49.672539347976567,StSch 4251 Oberpfalz 287,SzintillationszÃ¤,"Rn-222 (Radon), 1 m Tie",kBq m-3,17.0000000000,731162,5507153,660,"Perm, Unterrotliegend",,"Schieferton, Sandstein, Konglomerat, Kohle, Porphyrbreccie, Tuff",,,farmland,,
12.293180503506075,49.679024573488938,StSch 4251 Oberpfalz 288,SzintillationszÃ¤,"Rn-222 (Radon), 1 m Tie",kBq m-3,61.0000000000,737559,5508152,834,"z.T. Oberdevon, Karbon",plutonisch,Granit,variszischer Granit,,,,
12.248527214131485,49.647088471938652,StSch 4251 Oberpfalz 289,SzintillationszÃ¤,"Rn-222 (Radon), 1 m Tie",kBq m-3,173.0000000000,734492,5504462,760,Oberes Proterozoikum,metamorph,Glimmerschiefer,z.T. auch glimmerreicher Gneis,,,,
12.007679721386888,49.612774850285142,StSch 4251 Oberpfalz 290,SzintillationszÃ¤,"Rn-222 (Radon), 1 m Tie",kBq m-3,45.0000000000,717262,5499924,659,"Perm, Oberrotliegend","fluviatil, fanglomeratisch","Sandstein, Tonstein",Fanglomerat,,,,
12.068123327011675,49.608704103924239,StSch 4251 Oberpfalz 291,SzintillationszÃ¤,"Rn-222 (Radon), 1 m Tie",kBq m-3,7.0000000000,721646,5499648,608,"Trias, Buntsandstein ungegliedert",,"Sandstein, Schluffstein, Tonstein",,,,,
12.096239361417462,49.611724432288057,StSch 4251 Oberpfalz 292,SzintillationszÃ¤,"Rn-222 (Radon), 1 m Tie",kBq m-3,5.0000000000,723663,5500067,85,"Weichsel-(Wrm-)Kaltzeit; Niederterrasse",fluviatil,"Sand, Kies","z.T. mit Auenlehmdecke (/T,U,S/Lf); z.T. Niederungssande (Talsande) eingeschlossen",,,,
12.141519242080857,49.610080459749589,StSch 4251 Oberpfalz 293,SzintillationszÃ¤,"Rn-222 (Radon), 1 m Tie",kBq m-3,39.0000000000,726941,5500020,24,Holoz„n,fluviatil,"Sand, Kies, Schotter",z.T. unter Aulehmdecke [in den Alpen mit pleistoz„nen Terassen und Hangablagerungen,,,,forest
12.155350923591794,49.626797882421016,StSch 4251 Oberpfalz 294,SzintillationszÃ¤,"Rn-222 (Radon), 1 m Tie",kBq m-3,78.0000000000,727862,5501920,24,Holoz„n,fluviatil,"Sand, Kies, Schotter",z.T. unter Aulehmdecke [in den Alpen mit pleistoz„nen Terassen und Hangablagerungen,,,,forest
12.109123356740644,49.634239561482651,StSch 4251 Oberpfalz 295,SzintillationszÃ¤,"Rn-222 (Radon), 1 m Tie",kBq m-3,52.0000000000,724490,5502608,660,"Perm, Unterrotliegend",,"Schieferton, Sandstein, Konglomerat, Kohle, Porphyrbreccie, Tuff",,,,,
12.05909282805303,49.627206625566465,StSch 4251 Oberpfalz 296,SzintillationszÃ¤,"Rn-222 (Radon), 1 m Tie",kBq m-3,5.0000000000,720910,5501678,85,"Weichsel-(Wrm-)Kaltzeit; Niederterrasse",fluviatil,"Sand, Kies","z.T. mit Auenlehmdecke (/T,U,S/Lf); z.T. Niederungssande (Talsande) eingeschlossen",,,,
12.021336792239595,49.64194587029229,StSch 4251 Oberpfalz 297,SzintillationszÃ¤,"Rn-222 (Radon), 1 m Tie",kBq m-3,23.0000000000,718118,5503206,659,"Perm, Oberrotliegend","fluviatil, fanglomeratisch","Sandstein, Tonstein",Fanglomerat,,,,
12.006447904662684,49.668756769638208,StSch 4251 Oberpfalz 298,SzintillationszÃ¤,"Rn-222 (Radon), 1 m Tie",kBq m-3,5.0000000000,716924,5506143,85,"Weichsel-(Wrm-)Kaltzeit; Niederterrasse",fluviatil,"Sand, Kies","z.T. mit Auenlehmdecke (/T,U,S/Lf); z.T. Niederungssande (Talsande) eingeschlossen",,,,
12.069317340201955,49.663588253112181,StSch 4251 Oberpfalz 299,SzintillationszÃ¤,"Rn-222 (Radon), 1 m Tie",kBq m-3,6.0000000000,721483,5505752,659,"Perm, Oberrotliegend","fluviatil, fanglomeratisch","Sandstein, Tonstein",Fanglomerat,,,,
12.108787158491818,49.657874034212398,StSch 4251 Oberpfalz 300,SzintillationszÃ¤,"Rn-222 (Radon), 1 m Tie",kBq m-3,10.0000000000,724357,5505234,659,"Perm, Oberrotliegend","fluviatil, fanglomeratisch","Sandstein, Tonstein",Fanglomerat,,,,forest
12.133127373639301,49.655355029235167,StSch 4251 Oberpfalz 301,SzintillationszÃ¤,"Rn-222 (Radon), 1 m Tie",kBq m-3,98.0000000000,726125,5505027,659,"Perm, Oberrotliegend","fluviatil, fanglomeratisch","Sandstein, Tonstein",Fanglomerat,,,,forest
12.133378702046684,49.679099640886392,StSch 4251 Oberpfalz 302,SzintillationszÃ¤,"Rn-222 (Radon), 1 m Tie",kBq m-3,18.0000000000,726033,5507667,608,"Trias, Buntsandstein ungegliedert",,"Sandstein, Schluffstein, Tonstein",,,,,forest
12.102415391871181,49.683181878241797,StSch 4251 Oberpfalz 303,SzintillationszÃ¤,"Rn-222 (Radon), 1 m Tie",kBq m-3,6.0000000000,723781,5508028,608,"Trias, Buntsandstein ungegliedert",,"Sandstein, Schluffstein, Tonstein",,,,,forest
12.057624578384267,49.688413710251119,StSch 4251 Oberpfalz 304,SzintillationszÃ¤,"Rn-222 (Radon), 1 m Tie",kBq m-3,12.0000000000,720527,5508477,602,"Trias, Muschelkalk",marine Ablagerungen,"Kalkstein, Mergelstein, Dolomitstein, Tonstein",,,,,
12.02988272111398,49.699660473506633,StSch 4251 Oberpfalz 305,SzintillationszÃ¤,"Rn-222 (Radon), 1 m Tie",kBq m-3,10.0000000000,718476,5509646,602,"Trias, Muschelkalk",marine Ablagerungen,"Kalkstein, Mergelstein, Dolomitstein, Tonstein",,,,,
12.07543293161951,49.646503078381123,StSch 4251 Oberpfalz 306,SzintillationszÃ¤,"Rn-222 (Radon), 1 m Tie",kBq m-3,10.0000000000,722002,5503871,659,"Perm, Oberrotliegend","fluviatil, fanglomeratisch","Sandstein, Tonstein",Fanglomerat,,,,
12.037583221143317,49.662788437556081,StSch 4251 Oberpfalz 307,SzintillationszÃ¤,"Rn-222 (Radon), 1 m Tie",kBq m-3,7.0000000000,719197,5505570,608,"Trias, Buntsandstein ungegliedert",,"Sandstein, Schluffstein, Tonstein",,,,,
12.033756385232294,49.615089679376915,StSch 4251 Oberpfalz 308,SzintillationszÃ¤,"Rn-222 (Radon), 1 m Tie",kBq m-3,19.0000000000,719135,5500257,608,"Trias, Buntsandstein ungegliedert",,"Sandstein, Schluffstein, Tonstein",,,,,
12.270184986495243,50.057440710835508,StSch 4251 Oberpfalz 309,SzintillationszÃ¤,"Rn-222 (Radon), 1 m Tie",kBq m-3,91.0000000000,734063,5550141,715,"Ordovizium, Tieferes Ordovizium","marine Ablagerungen, metamorph",Phyllit,,,,,
12.369947059989027,49.918606962612145,StSch 4251 Oberpfalz 310,SzintillationszÃ¤,"Rn-222 (Radon), 1 m Tie",kBq m-3,57.0000000000,741898,5535027,503,"Terti„r, Plioz„n, ungegliedert",,"Ton, Sand, Kies; Braunkohle",,,,,
12.34135855155264,49.956114914883663,StSch 4251 Oberpfalz 311,SzintillationszÃ¤,"Rn-222 (Radon), 1 m Tie",kBq m-3,26.0000000000,739660,5539104,721,Kambrium ungegliedert,metamorph,Glimmerschiefer,,,,,
12.122477584224532,49.923246853245644,StSch 4251 Oberpfalz 312,SzintillationszÃ¤,"Rn-222 (Radon), 1 m Tie",kBq m-3,205.0000000000,724116,5534772,715,"Ordovizium, Tieferes Ordovizium","marine Ablagerungen, metamorph",Phyllit,,,,,
12.127317143836429,49.98396816092729,StSch 4251 Oberpfalz 313,SzintillationszÃ¤,"Rn-222 (Radon), 1 m Tie",kBq m-3,132.0000000000,724181,5541536,760,Oberes Proterozoikum,metamorph,Glimmerschiefer,z.T. auch glimmerreicher Gneis,,,,
12.461272097318398,49.876417308327596,StSch 4251 Oberpfalz 314,SzintillationszÃ¤,"Rn-222 (Radon), 1 m Tie",kBq m-3,95.0000000000,748669,5530637,845,Oberes Proterozoikum - Altpal„ozoikum,metamorphes Intrusivgestein,"Orthogneis: granitisch, granodioritisch","šberg„nge zu Migmatiten; Metamorphose pr„-? bis frh(?)-variszisch",,,,forest
12.3799783820826,49.849668464235435,StSch 4251 Oberpfalz 315,SzintillationszÃ¤,"Rn-222 (Radon), 1 m Tie",kBq m-3,63.0000000000,742964,5527397,760,Oberes Proterozoikum,metamorph,Glimmerschiefer,z.T. auch glimmerreicher Gneis,,,,forest
11.977534029700148,49.74610061839325,StSch 4251 Oberpfalz 316,SzintillationszÃ¤,"Rn-222 (Radon), 1 m Tie",kBq m-3,24.0000000000,714497,5514657,597,"Trias, Mittlerer Keuper, Gipskeuper, Schilfsandstein",,Tonstein mit Lagen von Steinmergel und Gips,,,,,
12.233200677732652,49.739159964016935,StSch 4251 Oberpfalz 317,SzintillationszÃ¤,"Rn-222 (Radon), 1 m Tie",kBq m-3,24.0000000000,732945,5514648,834,"z.T. Oberdevon, Karbon",plutonisch,Granit,variszischer Granit,,,,forest
12.292013488979782,49.773498406554815,StSch 4251 Oberpfalz 318,SzintillationszÃ¤,"Rn-222 (Radon), 1 m Tie",kBq m-3,77.0000000000,737014,5518649,760,Oberes Proterozoikum,metamorph,Glimmerschiefer,z.T. auch glimmerreicher Gneis,,,,
12.349647144692003,49.673291639301588,StSch 4251 Oberpfalz 319,SzintillationszÃ¤,"Rn-222 (Radon), 1 m Tie",kBq m-3,63.0000000000,741660,5507695,761,Oberes Proterozoikum,metamorph,Paragneis,,,,,
12.500877422457531,49.624726376499282,StSch 4251 Oberpfalz 320,SzintillationszÃ¤,"Rn-222 (Radon), 1 m Tie",kBq m-3,50.0000000000,752820,5502795,834,"z.T. Oberdevon, Karbon",plutonisch,Granit,variszischer Granit,,,,forest
11.963442717137292,49.6672752771088,StSch 4251 Oberpfalz 321,SzintillationszÃ¤,"Rn-222 (Radon), 1 m Tie",kBq m-3,12.0000000000,713828,5505855,608,"Trias, Buntsandstein ungegliedert",,"Sandstein, Schluffstein, Tonstein",,,,,forest
11.798851727212307,49.913163462784667,StSch 4251 Oberpfalz 322,SzintillationszÃ¤,"Rn-222 (Radon), 1 m Tie",kBq m-3,12.0000000000,700933,5532732,608,"Trias, Buntsandstein ungegliedert",,"Sandstein, Schluffstein, Tonstein",,,,,forest
11.813823573952407,49.930792930574675,StSch 4251 Oberpfalz 323,SzintillationszÃ¤,"Rn-222 (Radon), 1 m Tie",kBq m-3,32.0000000000,701934,5534732,715,"Ordovizium, Tieferes Ordovizium","marine Ablagerungen, metamorph",Phyllit,,,,,
12.489085071550774,49.539553912888721,StSch 4251 Oberpfalz 324,SzintillationszÃ¤,"Rn-222 (Radon), 1 m Tie",kBq m-3,86.0000000000,752408,5493289,761,Oberes Proterozoikum,metamorph,Paragneis,,,,,forest
11.994087329604401,49.968243169782788,StSch 4251 Oberpfalz 325,SzintillationszÃ¤,"Rn-222 (Radon), 1 m Tie",kBq m-3,134.0000000000,714702,5539397,760,Oberes Proterozoikum,metamorph,Glimmerschiefer,z.T. auch glimmerreicher Gneis,,,,
12.381907738074318,49.582363427368122,StSch 4251 Oberpfalz 326,SzintillationszÃ¤,"Rn-222 (Radon), 1 m Tie",kBq m-3,48.0000000000,744442,5497693,761,Oberes Proterozoikum,metamorph,Paragneis,,,,,
12.359222876230127,49.541007933474226,StSch 4251 Oberpfalz 327,SzintillationszÃ¤,"Rn-222 (Radon), 1 m Tie",kBq m-3,139.0000000000,743008,5493023,761,Oberes Proterozoikum,metamorph,Paragneis,,,,,forest
12.473120982686709,49.585588355352861,StSch 4251 Oberpfalz 328,SzintillationszÃ¤,"Rn-222 (Radon), 1 m Tie",kBq m-3,86.0000000000,751017,5498352,761,Oberes Proterozoikum,metamorph,Paragneis,,,,,forest
12.449861553323714,49.572114038757071,StSch 4251 Oberpfalz 329,SzintillationszÃ¤,"Rn-222 (Radon), 1 m Tie",kBq m-3,60.0000000000,749405,5496777,761,Oberes Proterozoikum,metamorph,Paragneis,,,,,forest
12.436581717115281,49.542215667730297,StSch 4251 Oberpfalz 330,SzintillationszÃ¤,"Rn-222 (Radon), 1 m Tie",kBq m-3,36.0000000000,748597,5493410,761,Oberes Proterozoikum,metamorph,Paragneis,,,,,forest
12.511311473361765,49.628836690760785,StSch 4251 Oberpfalz 331,SzintillationszÃ¤,"Rn-222 (Radon), 1 m Tie",kBq m-3,227.0000000000,753552,5503287,761,Oberes Proterozoikum,metamorph,Paragneis,,,,,forest
12.562841387765708,49.582201149612871,StSch 4251 Oberpfalz 332,SzintillationszÃ¤,"Rn-222 (Radon), 1 m Tie",kBq m-3,26.0000000000,757518,5498279,761,Oberes Proterozoikum,metamorph,Paragneis,,,,,
11.97683676969274,49.746730310577014,StSch 4251 Oberpfalz 333,SzintillationszÃ¤,"Rn-222 (Radon), 1 m Tie",kBq m-3,5.0000000000,714444,5514725,597,"Trias, Mittlerer Keuper, Gipskeuper, Schilfsandstein",,Tonstein mit Lagen von Steinmergel und Gips,,,,,
11.934270889082624,49.962351052197306,StSch 4251 Oberpfalz 334,SzintillationszÃ¤,"Rn-222 (Radon), 1 m Tie",kBq m-3,60.0000000000,710439,5538572,766,Oberes Proterozoikum,metamorph,"Marmor (Kalk-, Dolomit-, Kalksilikatfels-)",Karbonatfazies,,,,
11.949984528327075,49.96321164542659,StSch 4251 Oberpfalz 335,SzintillationszÃ¤,"Rn-222 (Radon), 1 m Tie",kBq m-3,33.0000000000,711562,5538712,833,"Oberkarbon, z.T. Rotliegend",plutonitisch,"Granit, Granodiorit","jungvariszische Granitoide, postasturisch",,,,
12.42885025942574,49.936320762289817,StSch 4251 Oberpfalz 336,SzintillationszÃ¤,"Rn-222 (Radon), 1 m Tie",kBq m-3,20.0000000000,746035,5537188,721,Kambrium ungegliedert,metamorph,Glimmerschiefer,,,,,
12.31842390670489,50.042062431086222,StSch 4251 Oberpfalz 337,SzintillationszÃ¤,"Rn-222 (Radon), 1 m Tie",kBq m-3,97.0000000000,737591,5548584,715,"Ordovizium, Tieferes Ordovizium","marine Ablagerungen, metamorph",Phyllit,,,,,
11.910606309120082,49.889071336188742,StSch 4251 Oberpfalz 338,SzintillationszÃ¤,"Rn-222 (Radon), 1 m Tie",kBq m-3,93.0000000000,709059,5530360,602,"Trias, Muschelkalk",marine Ablagerungen,"Kalkstein, Mergelstein, Dolomitstein, Tonstein",,,,,
12.303555258678077,49.610558362321896,StSch 4251 Oberpfalz 339,SzintillationszÃ¤,"Rn-222 (Radon), 1 m Tie",kBq m-3,30.0000000000,738642,5500575,834,"z.T. Oberdevon, Karbon",plutonisch,Granit,variszischer Granit,,,,
11.781293360381387,49.752412302590749,StSch 4251 Oberpfalz 340,SzintillationszÃ¤,"Rn-222 (Radon), 1 m Tie",kBq m-3,9.0000000000,700336,5514816,602,"Trias, Muschelkalk",marine Ablagerungen,"Kalkstein, Mergelstein, Dolomitstein, Tonstein",,,,,
11.740701302809702,49.765345220317961,StSch 4251 Oberpfalz 341,SzintillationszÃ¤,"Rn-222 (Radon), 1 m Tie",kBq m-3,7.0000000000,697360,5516146,597,"Trias, Mittlerer Keuper, Gipskeuper, Schilfsandstein",,Tonstein mit Lagen von Steinmergel und Gips,,,,,
11.974682282019195,49.718554810040445,StSch 4251 Oberpfalz 342,SzintillationszÃ¤,"Rn-222 (Radon), 1 m Tie",kBq m-3,13.0000000000,714413,5511587,85,"Weichsel-(Wrm-)Kaltzeit; Niederterrasse",fluviatil,"Sand, Kies","z.T. mit Auenlehmdecke (/T,U,S/Lf); z.T. Niederungssande (Talsande) eingeschlossen",,,,water
12.061044719969248,49.626750134378241,StSch 4251 Oberpfalz 343,SzintillationszÃ¤,"Rn-222 (Radon), 1 m Tie",kBq m-3,7.0000000000,721053,5501633,85,"Weichsel-(Wrm-)Kaltzeit; Niederterrasse",fluviatil,"Sand, Kies","z.T. mit Auenlehmdecke (/T,U,S/Lf); z.T. Niederungssande (Talsande) eingeschlossen",,,,
11.889384617439516,49.734830989573446,StSch 4251 Oberpfalz 344,SzintillationszÃ¤,"Rn-222 (Radon), 1 m Tie",kBq m-3,22.0000000000,708196,5513156,602,"Trias, Muschelkalk",marine Ablagerungen,"Kalkstein, Mergelstein, Dolomitstein, Tonstein",,,,,
12.185643630889468,49.609017348330461,StSch 4251 Oberpfalz 345,SzintillationszÃ¤,"Rn-222 (Radon), 1 m Tie",kBq m-3,32.0000000000,730133,5500036,659,"Perm, Oberrotliegend","fluviatil, fanglomeratisch","Sandstein, Tonstein",Fanglomerat,,,,
12.399827008807891,49.836095772211458,StSch 4251 Oberpfalz 346,SzintillationszÃ¤,"Rn-222 (Radon), 1 m Tie",kBq m-3,85.0000000000,744459,5525953,761,Oberes Proterozoikum,metamorph,Paragneis,,,,,
12.098808569018731,49.709521821152151,StSch 4251 Oberpfalz 347,SzintillationszÃ¤,"Rn-222 (Radon), 1 m Tie",kBq m-3,5.0000000000,723400,5510945,597,"Trias, Mittlerer Keuper, Gipskeuper, Schilfsandstein",,Tonstein mit Lagen von Steinmergel und Gips,,,,,
